{"type":"FeatureCollection","crs":{"type":"name","properties":{"name":"EPSG:4326"}},"features":[{"type":"Feature","id":1,"geometry":{"type":"Point","coordinates":[-100.184848528555,35.236166015489]},"properties":{"GID":287,"ARPRT_NM":"Shamrock Municipal Airport","CSTMS_FLAG":"N","FAA_CD":"2F1","CNTY_NBR":242,"DIST_NBR":25,"DSPLY_FLAG":"N","OBJECTID":1}},{"type":"Feature","id":2,"geometry":{"type":"Point","coordinates":[-101.7059389009,35.2193759358907]},"properties":{"GID":288,"ARPRT_NM":"Amarillo International Airport","CSTMS_FLAG":"Y","FAA_CD":"AMA","CNTY_NBR":188,"DIST_NBR":4,"DSPLY_FLAG":"N","OBJECTID":2}},{"type":"Feature","id":3,"geometry":{"type":"Point","coordinates":[-100.99626876284,35.6129960410193]},"properties":{"GID":289,"ARPRT_NM":"Perry LeFors Airfield","CSTMS_FLAG":"N","FAA_CD":"PPA","CNTY_NBR":91,"DIST_NBR":4,"DSPLY_FLAG":"N","OBJECTID":3}},{"type":"Feature","id":4,"geometry":{"type":"Point","coordinates":[-101.394058861272,35.7000460286136]},"properties":{"GID":290,"ARPRT_NM":"Hutchinson County Airport","CSTMS_FLAG":"N","FAA_CD":"BGD","CNTY_NBR":118,"DIST_NBR":4,"DSPLY_FLAG":"N","OBJECTID":4}},{"type":"Feature","id":5,"geometry":{"type":"Point","coordinates":[-102.547289168787,36.0225960145369]},"properties":{"GID":291,"ARPRT_NM":"Dalhart Municipal Airport","CSTMS_FLAG":"N","FAA_CD":"DHT","CNTY_NBR":104,"DIST_NBR":4,"DSPLY_FLAG":"N","OBJECTID":5}},{"type":"Feature","id":6,"geometry":{"type":"Point","coordinates":[-102.01310902768,35.8579360202535]},"properties":{"GID":292,"ARPRT_NM":"Moore County Airport","CSTMS_FLAG":"N","FAA_CD":"DUX","CNTY_NBR":171,"DIST_NBR":4,"DSPLY_FLAG":"N","OBJECTID":6}},{"type":"Feature","id":7,"geometry":{"type":"Point","coordinates":[-100.403648638279,35.8953161158945]},"properties":{"GID":293,"ARPRT_NM":"Hemphill County Airport","CSTMS_FLAG":"N","FAA_CD":"HHF","CNTY_NBR":107,"DIST_NBR":4,"DSPLY_FLAG":"N","OBJECTID":7}},{"type":"Feature","id":8,"geometry":{"type":"Point","coordinates":[-100.749728769669,36.4139461880679]},"properties":{"GID":294,"ARPRT_NM":"Perryton Ochiltree County Airport","CSTMS_FLAG":"N","FAA_CD":"PYX","CNTY_NBR":179,"DIST_NBR":4,"DSPLY_FLAG":"N","OBJECTID":8}},{"type":"Feature","id":9,"geometry":{"type":"Point","coordinates":[-101.694428975811,36.1772260898327]},"properties":{"GID":295,"ARPRT_NM":"Cluck Ranch Airport","CSTMS_FLAG":"N","FAA_CD":"2E3","CNTY_NBR":211,"DIST_NBR":4,"DSPLY_FLAG":"N","OBJECTID":9}},{"type":"Feature","id":10,"geometry":{"type":"Point","coordinates":[-94.7555136322755,31.2326839234798]},"properties":{"GID":296,"ARPRT_NM":"Angelina County Airport                   ","CSTMS_FLAG":"N","FAA_CD":"LFK","CNTY_NBR":3,"DIST_NBR":11,"DSPLY_FLAG":"N","OBJECTID":10}},{"type":"Feature","id":11,"geometry":{"type":"Point","coordinates":[-98.8189392918486,33.3509169572887]},"properties":{"GID":297,"ARPRT_NM":"Olney Municipal Airport","CSTMS_FLAG":"N","FAA_CD":"ONY","CNTY_NBR":252,"DIST_NBR":3,"DSPLY_FLAG":"N","OBJECTID":11}},{"type":"Feature","id":12,"geometry":{"type":"Point","coordinates":[-99.7368637952023,32.9098738269039]},"properties":{"GID":298,"ARPRT_NM":"Arledge Airfield","CSTMS_FLAG":"N","FAA_CD":"F56","CNTY_NBR":128,"DIST_NBR":8,"DSPLY_FLAG":"N","OBJECTID":12}},{"type":"Feature","id":13,"geometry":{"type":"Point","coordinates":[-94.9547960574996,29.7877406276713]},"properties":{"GID":299,"ARPRT_NM":"Baytown Airport","CSTMS_FLAG":"N","FAA_CD":"HPY","CNTY_NBR":102,"DIST_NBR":12,"DSPLY_FLAG":"N","OBJECTID":13}},{"type":"Feature","id":14,"geometry":{"type":"Point","coordinates":[-97.7975160443137,28.3686447559686]},"properties":{"GID":300,"ARPRT_NM":"Beeville Municipal Airport","CSTMS_FLAG":"N","FAA_CD":"3R0","CNTY_NBR":13,"DIST_NBR":16,"DSPLY_FLAG":"N","OBJECTID":14}},{"type":"Feature","id":15,"geometry":{"type":"Point","coordinates":[-102.692923614153,34.6479092836023]},"properties":{"GID":301,"ARPRT_NM":"Benger Airpark","CSTMS_FLAG":"N","FAA_CD":"Q54","CNTY_NBR":185,"DIST_NBR":5,"DSPLY_FLAG":"N","OBJECTID":15}},{"type":"Feature","id":16,"geometry":{"type":"Point","coordinates":[-99.2686738221023,32.7200467801529]},"properties":{"GID":302,"ARPRT_NM":"Albany Municipal Airport","CSTMS_FLAG":"N","FAA_CD":"T23","CNTY_NBR":209,"DIST_NBR":8,"DSPLY_FLAG":"N","OBJECTID":16}},{"type":"Feature","id":17,"geometry":{"type":"Point","coordinates":[-101.764164474462,33.8458080531163]},"properties":{"GID":303,"ARPRT_NM":"Abernathy Municipal Airport","CSTMS_FLAG":"N","FAA_CD":"F83","CNTY_NBR":96,"DIST_NBR":5,"DSPLY_FLAG":"N","OBJECTID":17}},{"type":"Feature","id":18,"geometry":{"type":"Point","coordinates":[-98.5993299374957,27.8849359865669]},"properties":{"GID":304,"ARPRT_NM":"Duval - Freer Airport","CSTMS_FLAG":"N","FAA_CD":"T19","CNTY_NBR":67,"DIST_NBR":22,"DSPLY_FLAG":"N","OBJECTID":18}},{"type":"Feature","id":19,"geometry":{"type":"Point","coordinates":[-99.8273653796796,28.5232274599918]},"properties":{"GID":305,"ARPRT_NM":"Dimmit County Airport","CSTMS_FLAG":"N","FAA_CD":"CZT","CNTY_NBR":64,"DIST_NBR":22,"DSPLY_FLAG":"N","OBJECTID":19}},{"type":"Feature","id":20,"geometry":{"type":"Point","coordinates":[-100.49600042256,28.8158464527087]},"properties":{"GID":306,"ARPRT_NM":"Maverick County Memorial International","CSTMS_FLAG":"Y","FAA_CD":"5T9","CNTY_NBR":233,"DIST_NBR":22,"DSPLY_FLAG":"N","OBJECTID":20}},{"type":"Feature","id":21,"geometry":{"type":"Point","coordinates":[-100.925794829263,29.3740843849179]},"properties":{"GID":307,"ARPRT_NM":"Del Rio International Airport","CSTMS_FLAG":"Y","FAA_CD":"DRT","CNTY_NBR":233,"DIST_NBR":22,"DSPLY_FLAG":"N","OBJECTID":21}},{"type":"Feature","id":22,"geometry":{"type":"Point","coordinates":[-99.8155041666019,33.438434666989]},"properties":{"GID":308,"ARPRT_NM":"Harrison Field of Knox City","CSTMS_FLAG":"N","FAA_CD":"F75","CNTY_NBR":138,"DIST_NBR":25,"DSPLY_FLAG":"Y","OBJECTID":22}},{"type":"Feature","id":23,"geometry":{"type":"Point","coordinates":[-97.7902788822115,29.529804508061]},"properties":{"GID":309,"ARPRT_NM":"Glen Beicker Ranch","CSTMS_FLAG":"N","FAA_CD":"83R","CNTY_NBR":95,"DIST_NBR":15,"DSPLY_FLAG":"Y","OBJECTID":23}},{"type":"Feature","id":24,"geometry":{"type":"Point","coordinates":[-98.1433280465576,33.2278687935777]},"properties":{"GID":310,"ARPRT_NM":"Jacksboro Municipal Airport","CSTMS_FLAG":"N","FAA_CD":"21F","CNTY_NBR":120,"DIST_NBR":2,"DSPLY_FLAG":"N","OBJECTID":24}},{"type":"Feature","id":25,"geometry":{"type":"Point","coordinates":[-97.0213550972568,31.6249499343387]},"properties":{"GID":311,"ARPRT_NM":"Wings For Christ Intl Flight Academy","CSTMS_FLAG":"N","FAA_CD":"73F","CNTY_NBR":161,"DIST_NBR":9,"DSPLY_FLAG":"Y","OBJECTID":25}},{"type":"Feature","id":26,"geometry":{"type":"Point","coordinates":[-96.8528333292688,31.3411122024586]},"properties":{"GID":312,"ARPRT_NM":"Marlin","CSTMS_FLAG":"N","FAA_CD":"T15","CNTY_NBR":74,"DIST_NBR":9,"DSPLY_FLAG":"Y","OBJECTID":26}},{"type":"Feature","id":27,"geometry":{"type":"Point","coordinates":[-100.282782292196,34.0275482221842]},"properties":{"GID":313,"ARPRT_NM":"Dan E Richards Municipal","CSTMS_FLAG":"N","FAA_CD":"3F6","CNTY_NBR":51,"DIST_NBR":25,"DSPLY_FLAG":"Y","OBJECTID":27}},{"type":"Feature","id":28,"geometry":{"type":"Point","coordinates":[-97.3634992584327,31.9257402927372]},"properties":{"GID":314,"ARPRT_NM":"Lake Whitney State Park","CSTMS_FLAG":"N","FAA_CD":"F50","CNTY_NBR":110,"DIST_NBR":9,"DSPLY_FLAG":"Y","OBJECTID":28}},{"type":"Feature","id":29,"geometry":{"type":"Point","coordinates":[-102.047209366919,36.3450363501202]},"properties":{"GID":316,"ARPRT_NM":"Stratford Field","CSTMS_FLAG":"N","FAA_CD":"Q70","CNTY_NBR":211,"DIST_NBR":4,"DSPLY_FLAG":"Y","OBJECTID":29}},{"type":"Feature","id":30,"geometry":{"type":"Point","coordinates":[-101.876301062682,35.068637848394]},"properties":{"GID":317,"ARPRT_NM":"Buffalo","CSTMS_FLAG":"N","FAA_CD":"1E7","CNTY_NBR":191,"DIST_NBR":4,"DSPLY_FLAG":"Y","OBJECTID":30}},{"type":"Feature","id":31,"geometry":{"type":"Point","coordinates":[-97.0887275910272,27.8111792358333]},"properties":{"GID":318,"ARPRT_NM":"Mustang Beach Airport","CSTMS_FLAG":"N","FAA_CD":"RAS","CNTY_NBR":178,"DIST_NBR":16,"DSPLY_FLAG":"N","OBJECTID":31}},{"type":"Feature","id":32,"geometry":{"type":"Point","coordinates":[-97.2099667163935,27.9150861640121]},"properties":{"GID":319,"ARPRT_NM":"TP McCampbell","CSTMS_FLAG":"N","FAA_CD":"T43","CNTY_NBR":205,"DIST_NBR":16,"DSPLY_FLAG":"N","OBJECTID":32}},{"type":"Feature","id":33,"geometry":{"type":"Point","coordinates":[-97.3461987013939,27.8875887651313]},"properties":{"GID":320,"ARPRT_NM":"Hunt Airport","CSTMS_FLAG":"N","FAA_CD":"9R5","CNTY_NBR":205,"DIST_NBR":16,"DSPLY_FLAG":"N","OBJECTID":33}},{"type":"Feature","id":34,"geometry":{"type":"Point","coordinates":[-97.5434995383227,28.0426172688245]},"properties":{"GID":321,"ARPRT_NM":"Alfred C. Bubba Thomas  San Patricio County Airport","CSTMS_FLAG":"N","FAA_CD":"T69","CNTY_NBR":205,"DIST_NBR":16,"DSPLY_FLAG":"N","OBJECTID":34}},{"type":"Feature","id":35,"geometry":{"type":"Point","coordinates":[-97.3266505810738,28.2916679838095]},"properties":{"GID":322,"ARPRT_NM":"Rooke Field","CSTMS_FLAG":"N","FAA_CD":"RFG","CNTY_NBR":196,"DIST_NBR":16,"DSPLY_FLAG":"N","OBJECTID":35}},{"type":"Feature","id":36,"geometry":{"type":"Point","coordinates":[-97.616627681849,28.6155571953193]},"properties":{"GID":323,"ARPRT_NM":"Goliad County Industrial Airpark","CSTMS_FLAG":"N","FAA_CD":"7T3","CNTY_NBR":89,"DIST_NBR":16,"DSPLY_FLAG":"N","OBJECTID":36}},{"type":"Feature","id":37,"geometry":{"type":"Point","coordinates":[-98.1189186849927,28.3665329237959]},"properties":{"GID":324,"ARPRT_NM":"Live Oak County Airport","CSTMS_FLAG":"N","FAA_CD":"8T6","CNTY_NBR":149,"DIST_NBR":16,"DSPLY_FLAG":"N","OBJECTID":37}},{"type":"Feature","id":38,"geometry":{"type":"Point","coordinates":[-97.8647907447873,28.8270226434419]},"properties":{"GID":325,"ARPRT_NM":"Karnes County","CSTMS_FLAG":"N","FAA_CD":"2R9","CNTY_NBR":129,"DIST_NBR":16,"DSPLY_FLAG":"N","OBJECTID":38}},{"type":"Feature","id":39,"geometry":{"type":"Point","coordinates":[-99.187840807723,28.6856550790036]},"properties":{"GID":326,"ARPRT_NM":"Dilley Airpark","CSTMS_FLAG":"N","FAA_CD":"24R","CNTY_NBR":83,"DIST_NBR":15,"DSPLY_FLAG":"N","OBJECTID":39}},{"type":"Feature","id":40,"geometry":{"type":"Point","coordinates":[-99.1119825304364,28.8264177113056]},"properties":{"GID":327,"ARPRT_NM":"McKinley Airfield","CSTMS_FLAG":"N","FAA_CD":"T30","CNTY_NBR":83,"DIST_NBR":15,"DSPLY_FLAG":"N","OBJECTID":40}},{"type":"Feature","id":41,"geometry":{"type":"Point","coordinates":[-98.6939935199906,29.7253163926272]},"properties":{"GID":328,"ARPRT_NM":"Boerne-Stage Airfield","CSTMS_FLAG":"N","FAA_CD":"5C1","CNTY_NBR":15,"DIST_NBR":15,"DSPLY_FLAG":"N","OBJECTID":41}},{"type":"Feature","id":42,"geometry":{"type":"Point","coordinates":[-98.4520629882564,29.7380133273682]},"properties":{"GID":329,"ARPRT_NM":"Bulverde Airpark","CSTMS_FLAG":"N","FAA_CD":"1T8","CNTY_NBR":46,"DIST_NBR":15,"DSPLY_FLAG":"N","OBJECTID":42}},{"type":"Feature","id":43,"geometry":{"type":"Point","coordinates":[-98.4232321476091,29.8105830044872]},"properties":{"GID":330,"ARPRT_NM":"Kestrel Airpark","CSTMS_FLAG":"N","FAA_CD":"1T7","CNTY_NBR":46,"DIST_NBR":15,"DSPLY_FLAG":"N","OBJECTID":43}},{"type":"Feature","id":44,"geometry":{"type":"Point","coordinates":[-97.7527074365447,27.6136484573009]},"properties":{"GID":331,"ARPRT_NM":"Bishop Municipal Airport","CSTMS_FLAG":"N","FAA_CD":"07R","CNTY_NBR":178,"DIST_NBR":16,"DSPLY_FLAG":"N","OBJECTID":44}},{"type":"Feature","id":45,"geometry":{"type":"Point","coordinates":[-97.5023432577168,27.774514681157]},"properties":{"GID":332,"ARPRT_NM":"Corpus Christi International Airport","CSTMS_FLAG":"Y","FAA_CD":"CRP","CNTY_NBR":178,"DIST_NBR":16,"DSPLY_FLAG":"N","OBJECTID":45}},{"type":"Feature","id":46,"geometry":{"type":"Point","coordinates":[-97.6903521441288,27.7801884559072]},"properties":{"GID":333,"ARPRT_NM":"Nueces County Airport","CSTMS_FLAG":"N","FAA_CD":"T53","CNTY_NBR":178,"DIST_NBR":16,"DSPLY_FLAG":"N","OBJECTID":46}},{"type":"Feature","id":47,"geometry":{"type":"Point","coordinates":[-102.073451962705,31.8555778594646]},"properties":{"GID":334,"ARPRT_NM":"Skywest Inc. Airport","CSTMS_FLAG":"N","FAA_CD":"7T7","CNTY_NBR":165,"DIST_NBR":6,"DSPLY_FLAG":"Y","OBJECTID":47}},{"type":"Feature","id":48,"geometry":{"type":"Point","coordinates":[-98.9428727998236,29.1377883711692]},"properties":{"GID":335,"ARPRT_NM":"Devine Municipal","CSTMS_FLAG":"N","FAA_CD":"23R","CNTY_NBR":163,"DIST_NBR":15,"DSPLY_FLAG":"N","OBJECTID":48}},{"type":"Feature","id":49,"geometry":{"type":"Point","coordinates":[-98.500364117391,29.2850096527213]},"properties":{"GID":336,"ARPRT_NM":"Horizon","CSTMS_FLAG":"N","FAA_CD":"74R","CNTY_NBR":15,"DIST_NBR":15,"DSPLY_FLAG":"Y","OBJECTID":49}},{"type":"Feature","id":50,"geometry":{"type":"Point","coordinates":[-96.7422174325175,33.207824621577]},"properties":{"GID":337,"ARPRT_NM":"Aero Country Airport","CSTMS_FLAG":"N","FAA_CD":"T31","CNTY_NBR":43,"DIST_NBR":18,"DSPLY_FLAG":"Y","OBJECTID":50}},{"type":"Feature","id":51,"geometry":{"type":"Point","coordinates":[-96.6829465945629,33.1292891041584]},"properties":{"GID":338,"ARPRT_NM":"Kittyhawk Airport","CSTMS_FLAG":"N","FAA_CD":"0T7","CNTY_NBR":43,"DIST_NBR":18,"DSPLY_FLAG":"Y","OBJECTID":51}},{"type":"Feature","id":52,"geometry":{"type":"Point","coordinates":[-99.9854155465877,31.9475607184656]},"properties":{"GID":339,"ARPRT_NM":"Winters Municipal","CSTMS_FLAG":"N","FAA_CD":"77F","CNTY_NBR":200,"DIST_NBR":7,"DSPLY_FLAG":"N","OBJECTID":52}},{"type":"Feature","id":53,"geometry":{"type":"Point","coordinates":[-97.2275287415705,33.3318742407909]},"properties":{"GID":340,"ARPRT_NM":"Ironhead","CSTMS_FLAG":"N","FAA_CD":"T58","CNTY_NBR":61,"DIST_NBR":18,"DSPLY_FLAG":"Y","OBJECTID":53}},{"type":"Feature","id":54,"geometry":{"type":"Point","coordinates":[-101.836280759245,35.1429205630682]},"properties":{"GID":341,"ARPRT_NM":"Palo Duro","CSTMS_FLAG":"N","FAA_CD":"1E4","CNTY_NBR":191,"DIST_NBR":4,"DSPLY_FLAG":"N","OBJECTID":54}},{"type":"Feature","id":55,"geometry":{"type":"Point","coordinates":[-97.0972375580891,32.0834955962473]},"properties":{"GID":342,"ARPRT_NM":"Hillsboro Municipal","CSTMS_FLAG":"N","FAA_CD":"INJ","CNTY_NBR":110,"DIST_NBR":9,"DSPLY_FLAG":"N","OBJECTID":55}},{"type":"Feature","id":56,"geometry":{"type":"Point","coordinates":[-100.921672811666,32.4694878463552]},"properties":{"GID":343,"ARPRT_NM":"Colorado City","CSTMS_FLAG":"N","FAA_CD":"T88","CNTY_NBR":168,"DIST_NBR":8,"DSPLY_FLAG":"Y","OBJECTID":56}},{"type":"Feature","id":57,"geometry":{"type":"Point","coordinates":[-98.8900151622431,32.7218356076288]},"properties":{"GID":344,"ARPRT_NM":"Stephens County Airport","CSTMS_FLAG":"N","FAA_CD":"BKD","CNTY_NBR":215,"DIST_NBR":23,"DSPLY_FLAG":"N","OBJECTID":57}},{"type":"Feature","id":58,"geometry":{"type":"Point","coordinates":[-97.8287755728581,33.1756420660509]},"properties":{"GID":345,"ARPRT_NM":"Bridgeport Municipal Airport","CSTMS_FLAG":"N","FAA_CD":"1F9","CNTY_NBR":249,"DIST_NBR":2,"DSPLY_FLAG":"N","OBJECTID":58}},{"type":"Feature","id":59,"geometry":{"type":"Point","coordinates":[-97.1972787091997,33.6503204730222]},"properties":{"GID":346,"ARPRT_NM":"Gainesville Municipal Airport","CSTMS_FLAG":"N","FAA_CD":"GLE","CNTY_NBR":49,"DIST_NBR":3,"DSPLY_FLAG":"N","OBJECTID":59}},{"type":"Feature","id":60,"geometry":{"type":"Point","coordinates":[-99.2831408771394,34.2272827889701]},"properties":{"GID":347,"ARPRT_NM":"Wilbarger County Airport","CSTMS_FLAG":"N","FAA_CD":"F05","CNTY_NBR":244,"DIST_NBR":3,"DSPLY_FLAG":"N","OBJECTID":60}},{"type":"Feature","id":61,"geometry":{"type":"Point","coordinates":[-99.2617571878767,33.6463737010467]},"properties":{"GID":348,"ARPRT_NM":"Seymour Municipal","CSTMS_FLAG":"N","FAA_CD":"60F","CNTY_NBR":12,"DIST_NBR":3,"DSPLY_FLAG":"N","OBJECTID":61}},{"type":"Feature","id":62,"geometry":{"type":"Point","coordinates":[-98.4362210733551,32.9229559704634]},"properties":{"GID":349,"ARPRT_NM":"Possum Kingdom","CSTMS_FLAG":"N","FAA_CD":"F35","CNTY_NBR":182,"DIST_NBR":2,"DSPLY_FLAG":"N","OBJECTID":62}},{"type":"Feature","id":63,"geometry":{"type":"Point","coordinates":[-98.3269939765246,32.0700094707762]},"properties":{"GID":350,"ARPRT_NM":"Dublin Municipal","CSTMS_FLAG":"N","FAA_CD":"9F0","CNTY_NBR":73,"DIST_NBR":2,"DSPLY_FLAG":"N","OBJECTID":63}},{"type":"Feature","id":64,"geometry":{"type":"Point","coordinates":[-98.9566074889522,31.7931655180371]},"properties":{"GID":351,"ARPRT_NM":"Brownwood Regional Airport","CSTMS_FLAG":"N","FAA_CD":"BWD","CNTY_NBR":25,"DIST_NBR":23,"DSPLY_FLAG":"N","OBJECTID":64}},{"type":"Feature","id":65,"geometry":{"type":"Point","coordinates":[-98.1966896524873,31.1066142808293]},"properties":{"GID":352,"ARPRT_NM":"Lampasas Airport","CSTMS_FLAG":"N","FAA_CD":"T28","CNTY_NBR":141,"DIST_NBR":23,"DSPLY_FLAG":"N","OBJECTID":65}},{"type":"Feature","id":66,"geometry":{"type":"Point","coordinates":[-98.7161814664356,31.2350093042383]},"properties":{"GID":353,"ARPRT_NM":"San Saba County Municipal Airport","CSTMS_FLAG":"N","FAA_CD":"81R","CNTY_NBR":206,"DIST_NBR":23,"DSPLY_FLAG":"N","OBJECTID":66}},{"type":"Feature","id":67,"geometry":{"type":"Point","coordinates":[-98.9976338291506,32.4168506714847]},"properties":{"GID":354,"ARPRT_NM":"Cisco Municipal","CSTMS_FLAG":"N","FAA_CD":"3F2","CNTY_NBR":68,"DIST_NBR":23,"DSPLY_FLAG":"N","OBJECTID":67}},{"type":"Feature","id":68,"geometry":{"type":"Point","coordinates":[-98.8106021858002,32.4153926036346]},"properties":{"GID":355,"ARPRT_NM":"Eastland Municipal Airport","CSTMS_FLAG":"N","FAA_CD":"ETN","CNTY_NBR":68,"DIST_NBR":23,"DSPLY_FLAG":"N","OBJECTID":68}},{"type":"Feature","id":69,"geometry":{"type":"Point","coordinates":[-98.6806726164415,32.4534802567806]},"properties":{"GID":356,"ARPRT_NM":"Ranger Municipal Airport","CSTMS_FLAG":"N","FAA_CD":"F23","CNTY_NBR":68,"DIST_NBR":23,"DSPLY_FLAG":"N","OBJECTID":69}},{"type":"Feature","id":70,"geometry":{"type":"Point","coordinates":[-98.0604443167251,32.7826077031645]},"properties":{"GID":357,"ARPRT_NM":"Mineral Wells Airport","CSTMS_FLAG":"N","FAA_CD":"MWL","CNTY_NBR":184,"DIST_NBR":2,"DSPLY_FLAG":"N","OBJECTID":70}},{"type":"Feature","id":71,"geometry":{"type":"Point","coordinates":[-97.8724213357463,32.5722032649856]},"properties":{"GID":358,"ARPRT_NM":"Horseshoe Bend","CSTMS_FLAG":"N","FAA_CD":"F78","CNTY_NBR":184,"DIST_NBR":2,"DSPLY_FLAG":"Y","OBJECTID":71}},{"type":"Feature","id":72,"geometry":{"type":"Point","coordinates":[-97.5796642159664,33.2544583867025]},"properties":{"GID":359,"ARPRT_NM":"Decatur Municipal Airport","CSTMS_FLAG":"N","FAA_CD":"8F7","CNTY_NBR":249,"DIST_NBR":2,"DSPLY_FLAG":"N","OBJECTID":72}},{"type":"Feature","id":73,"geometry":{"type":"Point","coordinates":[-99.787848102259,29.8168950507665]},"properties":{"GID":360,"ARPRT_NM":"Lewis Ranch","CSTMS_FLAG":"N","FAA_CD":"T13","CNTY_NBR":193,"DIST_NBR":7,"DSPLY_FLAG":"N","OBJECTID":73}},{"type":"Feature","id":74,"geometry":{"type":"Point","coordinates":[-98.5540703583861,33.1130993172175]},"properties":{"GID":361,"ARPRT_NM":"Graham Municipal ","CSTMS_FLAG":"N","FAA_CD":"E15","CNTY_NBR":252,"DIST_NBR":3,"DSPLY_FLAG":"N","OBJECTID":74}},{"type":"Feature","id":75,"geometry":{"type":"Point","coordinates":[-98.6253479966816,33.0154056979191]},"properties":{"GID":362,"ARPRT_NM":"Rosser Ranch","CSTMS_FLAG":"N","FAA_CD":"10F","CNTY_NBR":252,"DIST_NBR":3,"DSPLY_FLAG":"Y","OBJECTID":75}},{"type":"Feature","id":76,"geometry":{"type":"Point","coordinates":[-100.568738488844,33.2292656538547]},"properties":{"GID":363,"ARPRT_NM":"Kent County","CSTMS_FLAG":"N","FAA_CD":"22F","CNTY_NBR":132,"DIST_NBR":8,"DSPLY_FLAG":"Y","OBJECTID":76}},{"type":"Feature","id":77,"geometry":{"type":"Point","coordinates":[-100.197608393785,33.1723256603719]},"properties":{"GID":364,"ARPRT_NM":"Stonewall County","CSTMS_FLAG":"N","FAA_CD":"T60","CNTY_NBR":217,"DIST_NBR":8,"DSPLY_FLAG":"Y","OBJECTID":77}},{"type":"Feature","id":78,"geometry":{"type":"Point","coordinates":[-96.685494830258,32.4783868135508]},"properties":{"GID":315,"ARPRT_NM":"Dallas South Port","CSTMS_FLAG":"N","FAA_CD":"T13","CNTY_NBR":71,"DIST_NBR":18,"DSPLY_FLAG":"Y","OBJECTID":78}},{"type":"Feature","id":79,"geometry":{"type":"Point","coordinates":[-95.9735771154422,28.952485015876]},"properties":{"GID":1,"ARPRT_NM":"Fehmel Dusting Service","CSTMS_FLAG":"N","FAA_CD":"T84","CNTY_NBR":158,"DIST_NBR":13,"DSPLY_FLAG":"Y","OBJECTID":79}},{"type":"Feature","id":80,"geometry":{"type":"Point","coordinates":[-95.3279969857823,29.5557951572038]},"properties":{"GID":2,"ARPRT_NM":"Skyway Manor","CSTMS_FLAG":"N","FAA_CD":"T79","CNTY_NBR":20,"DIST_NBR":12,"DSPLY_FLAG":"N","OBJECTID":80}},{"type":"Feature","id":81,"geometry":{"type":"Point","coordinates":[-95.4238370037699,29.5377351513569]},"properties":{"GID":3,"ARPRT_NM":"Flyin' B","CSTMS_FLAG":"N","FAA_CD":"39R","CNTY_NBR":20,"DIST_NBR":12,"DSPLY_FLAG":"Y","OBJECTID":81}},{"type":"Feature","id":82,"geometry":{"type":"Point","coordinates":[-95.4505069991035,29.1596950747421]},"properties":{"GID":4,"ARPRT_NM":"Cameron","CSTMS_FLAG":"N","FAA_CD":"T34","CNTY_NBR":20,"DIST_NBR":12,"DSPLY_FLAG":"Y","OBJECTID":82}},{"type":"Feature","id":83,"geometry":{"type":"Point","coordinates":[-96.9560673902415,29.3899650694858]},"properties":{"GID":5,"ARPRT_NM":"Hallettsville Municipal","CSTMS_FLAG":"N","FAA_CD":"34R","CNTY_NBR":143,"DIST_NBR":13,"DSPLY_FLAG":"Y","OBJECTID":83}},{"type":"Feature","id":84,"geometry":{"type":"Point","coordinates":[-96.3987872332993,29.1082850284183]},"properties":{"GID":6,"ARPRT_NM":"Flying V Ranch","CSTMS_FLAG":"N","FAA_CD":"T26","CNTY_NBR":241,"DIST_NBR":13,"DSPLY_FLAG":"Y","OBJECTID":84}},{"type":"Feature","id":85,"geometry":{"type":"Point","coordinates":[-96.0077371504271,29.266085071627]},"properties":{"GID":7,"ARPRT_NM":"Lackey Aviation","CSTMS_FLAG":"N","FAA_CD":"94R","CNTY_NBR":241,"DIST_NBR":13,"DSPLY_FLAG":"Y","OBJECTID":85}},{"type":"Feature","id":86,"geometry":{"type":"Point","coordinates":[-98.7983678484861,29.5105150272644]},"properties":{"GID":8,"ARPRT_NM":"San Geronimo Airpark","CSTMS_FLAG":"N","FAA_CD":"8T8","CNTY_NBR":15,"DIST_NBR":15,"DSPLY_FLAG":"N","OBJECTID":86}},{"type":"Feature","id":87,"geometry":{"type":"Point","coordinates":[-98.4630777727408,29.5730150490943]},"properties":{"GID":9,"ARPRT_NM":"Twin Oaks Airpark","CSTMS_FLAG":"N","FAA_CD":"T94","CNTY_NBR":15,"DIST_NBR":15,"DSPLY_FLAG":"N","OBJECTID":87}},{"type":"Feature","id":88,"geometry":{"type":"Point","coordinates":[-97.4613875179132,29.5280150759612]},"properties":{"GID":10,"ARPRT_NM":"Gonzales Municipal","CSTMS_FLAG":"N","FAA_CD":"T20","CNTY_NBR":90,"DIST_NBR":13,"DSPLY_FLAG":"Y","OBJECTID":88}},{"type":"Feature","id":89,"geometry":{"type":"Point","coordinates":[-95.7752370948163,29.5244151322122]},"properties":{"GID":11,"ARPRT_NM":"Lane Airpark","CSTMS_FLAG":"N","FAA_CD":"T54","CNTY_NBR":80,"DIST_NBR":12,"DSPLY_FLAG":"Y","OBJECTID":89}},{"type":"Feature","id":90,"geometry":{"type":"Point","coordinates":[-95.9350071348449,29.5030651307543]},"properties":{"GID":12,"ARPRT_NM":"Ward Airpark","CSTMS_FLAG":"N","FAA_CD":"5T0","CNTY_NBR":80,"DIST_NBR":12,"DSPLY_FLAG":"Y","OBJECTID":90}},{"type":"Feature","id":91,"geometry":{"type":"Point","coordinates":[-94.4310267617141,29.8041152385142]},"properties":{"GID":13,"ARPRT_NM":"Chambers County-Winnie Stowell","CSTMS_FLAG":"N","FAA_CD":"T90","CNTY_NBR":36,"DIST_NBR":20,"DSPLY_FLAG":"Y","OBJECTID":91}},{"type":"Feature","id":92,"geometry":{"type":"Point","coordinates":[-94.846506870996,29.7616752122064]},"properties":{"GID":14,"ARPRT_NM":"RWJ Airpark","CSTMS_FLAG":"N","FAA_CD":"54T","CNTY_NBR":36,"DIST_NBR":20,"DSPLY_FLAG":"N","OBJECTID":92}},{"type":"Feature","id":93,"geometry":{"type":"Point","coordinates":[-97.6594475776824,29.728285112208]},"properties":{"GID":15,"ARPRT_NM":"The Carter Memorial","CSTMS_FLAG":"N","FAA_CD":"T91","CNTY_NBR":28,"DIST_NBR":14,"DSPLY_FLAG":"Y","OBJECTID":93}},{"type":"Feature","id":94,"geometry":{"type":"Point","coordinates":[-99.7608980975597,29.7455050403719]},"properties":{"GID":16,"ARPRT_NM":"Real County","CSTMS_FLAG":"N","FAA_CD":"49R","CNTY_NBR":193,"DIST_NBR":7,"DSPLY_FLAG":"Y","OBJECTID":94}},{"type":"Feature","id":95,"geometry":{"type":"Point","coordinates":[-96.2460772390399,29.9418952045663]},"properties":{"GID":17,"ARPRT_NM":"Grawunder Field","CSTMS_FLAG":"N","FAA_CD":"06R","CNTY_NBR":8,"DIST_NBR":13,"DSPLY_FLAG":"Y","OBJECTID":95}},{"type":"Feature","id":96,"geometry":{"type":"Point","coordinates":[-95.6672270984148,30.0427852410545]},"properties":{"GID":18,"ARPRT_NM":"May","CSTMS_FLAG":"N","FAA_CD":"T51","CNTY_NBR":102,"DIST_NBR":12,"DSPLY_FLAG":"Y","OBJECTID":96}},{"type":"Feature","id":97,"geometry":{"type":"Point","coordinates":[-95.1587569383679,29.6073351707953]},"properties":{"GID":19,"ARPRT_NM":"Ellington Field","CSTMS_FLAG":"N","FAA_CD":"EFD","CNTY_NBR":102,"DIST_NBR":12,"DSPLY_FLAG":"N","OBJECTID":97}},{"type":"Feature","id":98,"geometry":{"type":"Point","coordinates":[-95.6399470787313,29.935505228245]},"properties":{"GID":20,"ARPRT_NM":"Weiser Air Park","CSTMS_FLAG":"N","FAA_CD":"EYQ","CNTY_NBR":102,"DIST_NBR":12,"DSPLY_FLAG":"N","OBJECTID":98}},{"type":"Feature","id":99,"geometry":{"type":"Point","coordinates":[-96.0044071720257,29.873845196173]},"properties":{"GID":21,"ARPRT_NM":"Mikeska Field","CSTMS_FLAG":"N","FAA_CD":"12R","CNTY_NBR":237,"DIST_NBR":12,"DSPLY_FLAG":"Y","OBJECTID":99}},{"type":"Feature","id":100,"geometry":{"type":"Point","coordinates":[-94.2575467362272,30.3363453549884]},"properties":{"GID":22,"ARPRT_NM":"Hawthorne Field","CSTMS_FLAG":"N","FAA_CD":"45R","CNTY_NBR":101,"DIST_NBR":20,"DSPLY_FLAG":"N","OBJECTID":100}},{"type":"Feature","id":101,"geometry":{"type":"Point","coordinates":[-96.980017429727,30.1692752252323]},"properties":{"GID":23,"ARPRT_NM":"Giddings-Lee County","CSTMS_FLAG":"N","FAA_CD":"62H","CNTY_NBR":144,"DIST_NBR":14,"DSPLY_FLAG":"Y","OBJECTID":101}},{"type":"Feature","id":102,"geometry":{"type":"Point","coordinates":[-97.9694776905949,30.4985952543963]},"properties":{"GID":24,"ARPRT_NM":"Lago Vista - Rusty Allen","CSTMS_FLAG":"N","FAA_CD":"5R3","CNTY_NBR":227,"DIST_NBR":14,"DSPLY_FLAG":"Y","OBJECTID":102}},{"type":"Feature","id":103,"geometry":{"type":"Point","coordinates":[-97.9944776926625,30.3575852223455]},"properties":{"GID":25,"ARPRT_NM":"Lakeway Airpark","CSTMS_FLAG":"N","FAA_CD":"3R9","CNTY_NBR":227,"DIST_NBR":14,"DSPLY_FLAG":"N","OBJECTID":103}},{"type":"Feature","id":104,"geometry":{"type":"Point","coordinates":[-97.5672575826791,30.3966152474509]},"properties":{"GID":26,"ARPRT_NM":"Bird's Nest","CSTMS_FLAG":"N","FAA_CD":"6R4","CNTY_NBR":227,"DIST_NBR":14,"DSPLY_FLAG":"Y","OBJECTID":104}},{"type":"Feature","id":105,"geometry":{"type":"Point","coordinates":[-95.3219970140321,30.1533852805968]},"properties":{"GID":27,"ARPRT_NM":"Williams","CSTMS_FLAG":"N","FAA_CD":"9X1","CNTY_NBR":170,"DIST_NBR":12,"DSPLY_FLAG":"Y","OBJECTID":105}},{"type":"Feature","id":106,"geometry":{"type":"Point","coordinates":[-96.1132872209159,30.3718952963674]},"properties":{"GID":28,"ARPRT_NM":"Navasota Municipal","CSTMS_FLAG":"N","FAA_CD":"60R","CNTY_NBR":94,"DIST_NBR":17,"DSPLY_FLAG":"Y","OBJECTID":106}},{"type":"Feature","id":107,"geometry":{"type":"Point","coordinates":[-97.8189076630053,30.6021452745149]},"properties":{"GID":29,"ARPRT_NM":"Kittie Hill","CSTMS_FLAG":"N","FAA_CD":"77T","CNTY_NBR":246,"DIST_NBR":14,"DSPLY_FLAG":"Y","OBJECTID":107}},{"type":"Feature","id":108,"geometry":{"type":"Point","coordinates":[-98.6602578734005,30.7845052837503]},"properties":{"GID":30,"ARPRT_NM":"Llano Municipal","CSTMS_FLAG":"N","FAA_CD":"6R9","CNTY_NBR":150,"DIST_NBR":14,"DSPLY_FLAG":"Y","OBJECTID":108}},{"type":"Feature","id":109,"geometry":{"type":"Point","coordinates":[-98.408647804037,30.59880525789]},"properties":{"GID":31,"ARPRT_NM":"Sunrise Beach","CSTMS_FLAG":"N","FAA_CD":"2KL","CNTY_NBR":150,"DIST_NBR":14,"DSPLY_FLAG":"Y","OBJECTID":109}},{"type":"Feature","id":110,"geometry":{"type":"Point","coordinates":[-99.1843180032509,30.7322352486484]},"properties":{"GID":32,"ARPRT_NM":"Mason County","CSTMS_FLAG":"N","FAA_CD":"T92","CNTY_NBR":157,"DIST_NBR":14,"DSPLY_FLAG":"Y","OBJECTID":110}},{"type":"Feature","id":111,"geometry":{"type":"Point","coordinates":[-95.9520072036245,30.9128354085548]},"properties":{"GID":33,"ARPRT_NM":"Madisonville Municipal","CSTMS_FLAG":"N","FAA_CD":"51R","CNTY_NBR":154,"DIST_NBR":17,"DSPLY_FLAG":"Y","OBJECTID":111}},{"type":"Feature","id":112,"geometry":{"type":"Point","coordinates":[-93.741846636533,30.884375490646]},"properties":{"GID":34,"ARPRT_NM":"Newton Municipal","CSTMS_FLAG":"N","FAA_CD":"61R","CNTY_NBR":176,"DIST_NBR":20,"DSPLY_FLAG":"Y","OBJECTID":112}},{"type":"Feature","id":113,"geometry":{"type":"Point","coordinates":[-95.4038370883541,31.3069655090185]},"properties":{"GID":35,"ARPRT_NM":"Houston County","CSTMS_FLAG":"N","FAA_CD":"T56","CNTY_NBR":114,"DIST_NBR":11,"DSPLY_FLAG":"Y","OBJECTID":113}},{"type":"Feature","id":114,"geometry":{"type":"Point","coordinates":[-93.9818667193559,31.2335255447614]},"properties":{"GID":36,"ARPRT_NM":"Pineland Municipal","CSTMS_FLAG":"N","FAA_CD":"T24","CNTY_NBR":202,"DIST_NBR":11,"DSPLY_FLAG":"Y","OBJECTID":114}},{"type":"Feature","id":115,"geometry":{"type":"Point","coordinates":[-101.473288584092,31.1974952465716]},"properties":{"GID":37,"ARPRT_NM":"Reagan County","CSTMS_FLAG":"N","FAA_CD":"E41","CNTY_NBR":192,"DIST_NBR":7,"DSPLY_FLAG":"N","OBJECTID":115}},{"type":"Feature","id":116,"geometry":{"type":"Point","coordinates":[-102.225428751131,31.125155197871]},"properties":{"GID":38,"ARPRT_NM":"Upton County","CSTMS_FLAG":"N","FAA_CD":"E48","CNTY_NBR":231,"DIST_NBR":6,"DSPLY_FLAG":"N","OBJECTID":116}},{"type":"Feature","id":117,"geometry":{"type":"Point","coordinates":[-101.953198691651,31.2273752333889]},"properties":{"GID":39,"ARPRT_NM":"Rankin","CSTMS_FLAG":"N","FAA_CD":"49F","CNTY_NBR":231,"DIST_NBR":6,"DSPLY_FLAG":"Y","OBJECTID":117}},{"type":"Feature","id":118,"geometry":{"type":"Point","coordinates":[-97.7969776974386,31.4212854330619]},"properties":{"GID":40,"ARPRT_NM":"City-County","CSTMS_FLAG":"N","FAA_CD":"05F","CNTY_NBR":50,"DIST_NBR":9,"DSPLY_FLAG":"N","OBJECTID":118}},{"type":"Feature","id":119,"geometry":{"type":"Point","coordinates":[-97.362797600534,31.6787755007009]},"properties":{"GID":41,"ARPRT_NM":"Wildcat Canyon","CSTMS_FLAG":"N","FAA_CD":"3T8","CNTY_NBR":161,"DIST_NBR":9,"DSPLY_FLAG":"Y","OBJECTID":119}},{"type":"Feature","id":120,"geometry":{"type":"Point","coordinates":[-97.4294676153455,31.6210054868831]},"properties":{"GID":42,"ARPRT_NM":"Valley Mills Municipal","CSTMS_FLAG":"N","FAA_CD":"9F1","CNTY_NBR":161,"DIST_NBR":9,"DSPLY_FLAG":"Y","OBJECTID":120}},{"type":"Feature","id":121,"geometry":{"type":"Point","coordinates":[-105.191834039611,31.9477718927064]},"properties":{"GID":43,"ARPRT_NM":"Dell City Municipal","CSTMS_FLAG":"N","FAA_CD":"2E5","CNTY_NBR":116,"DIST_NBR":24,"DSPLY_FLAG":"Y","OBJECTID":121}},{"type":"Feature","id":122,"geometry":{"type":"Point","coordinates":[-106.239299690676,31.7196951365802]},"properties":{"GID":44,"ARPRT_NM":"Horizon","CSTMS_FLAG":"N","FAA_CD":"T27","CNTY_NBR":72,"DIST_NBR":24,"DSPLY_FLAG":"Y","OBJECTID":122}},{"type":"Feature","id":123,"geometry":{"type":"Point","coordinates":[-100.540388387011,31.88181541132]},"properties":{"GID":45,"ARPRT_NM":"Robert Lee","CSTMS_FLAG":"N","FAA_CD":"54F","CNTY_NBR":41,"DIST_NBR":7,"DSPLY_FLAG":"N","OBJECTID":123}},{"type":"Feature","id":124,"geometry":{"type":"Point","coordinates":[-102.101038772329,32.0365253771601]},"properties":{"GID":46,"ARPRT_NM":"Midland Airpark","CSTMS_FLAG":"N","FAA_CD":"MDD","CNTY_NBR":165,"DIST_NBR":6,"DSPLY_FLAG":"N","OBJECTID":124}},{"type":"Feature","id":125,"geometry":{"type":"Point","coordinates":[-100.969558483456,31.6437653500996]},"properties":{"GID":47,"ARPRT_NM":"Alvie Cole Ranch","CSTMS_FLAG":"N","FAA_CD":"64F","CNTY_NBR":216,"DIST_NBR":7,"DSPLY_FLAG":"Y","OBJECTID":125}},{"type":"Feature","id":126,"geometry":{"type":"Point","coordinates":[-95.2946771019635,32.0973856655934]},"properties":{"GID":48,"ARPRT_NM":"Tarrant Field","CSTMS_FLAG":"N","FAA_CD":"6X0","CNTY_NBR":37,"DIST_NBR":10,"DSPLY_FLAG":"Y","OBJECTID":126}},{"type":"Feature","id":127,"geometry":{"type":"Point","coordinates":[-99.6503682073103,32.4501355505908]},"properties":{"GID":49,"ARPRT_NM":"Elmdale Airpark","CSTMS_FLAG":"N","FAA_CD":"6F4","CNTY_NBR":221,"DIST_NBR":8,"DSPLY_FLAG":"N","OBJECTID":127}},{"type":"Feature","id":128,"geometry":{"type":"Point","coordinates":[-101.822478716233,32.1735854060772]},"properties":{"GID":50,"ARPRT_NM":"Stanton Municipal","CSTMS_FLAG":"N","FAA_CD":"63F","CNTY_NBR":156,"DIST_NBR":6,"DSPLY_FLAG":"N","OBJECTID":128}},{"type":"Feature","id":129,"geometry":{"type":"Point","coordinates":[-95.8627472714312,32.5862457397008]},"properties":{"GID":51,"ARPRT_NM":"Canton-Hackney","CSTMS_FLAG":"N","FAA_CD":"7F5","CNTY_NBR":234,"DIST_NBR":10,"DSPLY_FLAG":"Y","OBJECTID":129}},{"type":"Feature","id":130,"geometry":{"type":"Point","coordinates":[-95.984137312867,32.6815257499417]},"properties":{"GID":52,"ARPRT_NM":"Wills Point Municipal","CSTMS_FLAG":"N","FAA_CD":"76F","CNTY_NBR":234,"DIST_NBR":10,"DSPLY_FLAG":"Y","OBJECTID":130}},{"type":"Feature","id":131,"geometry":{"type":"Point","coordinates":[-96.2368673675907,32.5137557144511]},"properties":{"GID":53,"ARPRT_NM":"Hall","CSTMS_FLAG":"N","FAA_CD":"K00","CNTY_NBR":130,"DIST_NBR":18,"DSPLY_FLAG":"Y","OBJECTID":131}},{"type":"Feature","id":132,"geometry":{"type":"Point","coordinates":[-94.3043668812248,32.7459758370005]},"properties":{"GID":54,"ARPRT_NM":"Cypress River","CSTMS_FLAG":"N","FAA_CD":"24F","CNTY_NBR":155,"DIST_NBR":19,"DSPLY_FLAG":"Y","OBJECTID":132}},{"type":"Feature","id":133,"geometry":{"type":"Point","coordinates":[-94.3543669006315,32.826535850991]},"properties":{"GID":55,"ARPRT_NM":"Manning Field","CSTMS_FLAG":"N","FAA_CD":"6F7","CNTY_NBR":155,"DIST_NBR":19,"DSPLY_FLAG":"Y","OBJECTID":133}},{"type":"Feature","id":134,"geometry":{"type":"Point","coordinates":[-94.9488670400805,32.6990057998982]},"properties":{"GID":56,"ARPRT_NM":"Fox Stephens Field - Gilmer Municipal","CSTMS_FLAG":"N","FAA_CD":"4F4","CNTY_NBR":230,"DIST_NBR":19,"DSPLY_FLAG":"Y","OBJECTID":134}},{"type":"Feature","id":135,"geometry":{"type":"Point","coordinates":[-99.297868150758,32.7426256270264]},"properties":{"GID":57,"ARPRT_NM":"Taylor","CSTMS_FLAG":"N","FAA_CD":"6F5","CNTY_NBR":209,"DIST_NBR":8,"DSPLY_FLAG":"Y","OBJECTID":135}},{"type":"Feature","id":136,"geometry":{"type":"Point","coordinates":[-100.137888358663,32.8501156009568]},"properties":{"GID":58,"ARPRT_NM":"Hamlin Municipal","CSTMS_FLAG":"N","FAA_CD":"14F","CNTY_NBR":128,"DIST_NBR":8,"DSPLY_FLAG":"Y","OBJECTID":136}},{"type":"Feature","id":137,"geometry":{"type":"Point","coordinates":[-100.415398422532,32.8256655816275]},"properties":{"GID":59,"ARPRT_NM":"Fisher County","CSTMS_FLAG":"N","FAA_CD":"56F","CNTY_NBR":77,"DIST_NBR":8,"DSPLY_FLAG":"Y","OBJECTID":137}},{"type":"Feature","id":138,"geometry":{"type":"Point","coordinates":[-100.950458540716,32.6933955416641]},"properties":{"GID":60,"ARPRT_NM":"Winston Field","CSTMS_FLAG":"N","FAA_CD":"SNK","CNTY_NBR":208,"DIST_NBR":8,"DSPLY_FLAG":"N","OBJECTID":138}},{"type":"Feature","id":139,"geometry":{"type":"Point","coordinates":[-96.3083174060639,32.857075769578]},"properties":{"GID":61,"ARPRT_NM":"Rives Air Park","CSTMS_FLAG":"N","FAA_CD":"T33","CNTY_NBR":199,"DIST_NBR":18,"DSPLY_FLAG":"Y","OBJECTID":139}},{"type":"Feature","id":140,"geometry":{"type":"Point","coordinates":[-96.868197534475,32.6808657174199]},"properties":{"GID":62,"ARPRT_NM":"Redbird","CSTMS_FLAG":"N","FAA_CD":"RBD","CNTY_NBR":57,"DIST_NBR":18,"DSPLY_FLAG":"N","OBJECTID":140}},{"type":"Feature","id":141,"geometry":{"type":"Point","coordinates":[-96.865567523343,32.5570856947043]},"properties":{"GID":63,"ARPRT_NM":"Carroll Air Park","CSTMS_FLAG":"N","FAA_CD":"F66","CNTY_NBR":57,"DIST_NBR":18,"DSPLY_FLAG":"Y","OBJECTID":141}},{"type":"Feature","id":142,"geometry":{"type":"Point","coordinates":[-97.4116976849775,32.9312457351755]},"properties":{"GID":64,"ARPRT_NM":"Hicks Airfield","CSTMS_FLAG":"N","FAA_CD":"T67","CNTY_NBR":220,"DIST_NBR":2,"DSPLY_FLAG":"N","OBJECTID":142}},{"type":"Feature","id":143,"geometry":{"type":"Point","coordinates":[-97.3780776803105,32.862635730291]},"properties":{"GID":65,"ARPRT_NM":"Saginaw","CSTMS_FLAG":"N","FAA_CD":"F04","CNTY_NBR":220,"DIST_NBR":2,"DSPLY_FLAG":"N","OBJECTID":143}},{"type":"Feature","id":144,"geometry":{"type":"Point","coordinates":[-95.2788671455267,32.9388558337387]},"properties":{"GID":66,"ARPRT_NM":"Winnsboro Municipal","CSTMS_FLAG":"N","FAA_CD":"F51","CNTY_NBR":250,"DIST_NBR":10,"DSPLY_FLAG":"Y","OBJECTID":144}},{"type":"Feature","id":145,"geometry":{"type":"Point","coordinates":[-102.842159009335,32.9751054994322]},"properties":{"GID":67,"ARPRT_NM":"Denver City","CSTMS_FLAG":"N","FAA_CD":"E57","CNTY_NBR":251,"DIST_NBR":5,"DSPLY_FLAG":"Y","OBJECTID":145}},{"type":"Feature","id":146,"geometry":{"type":"Point","coordinates":[-102.834109019224,33.2148255385706]},"properties":{"GID":68,"ARPRT_NM":"Yoakum County","CSTMS_FLAG":"N","FAA_CD":"F98","CNTY_NBR":251,"DIST_NBR":5,"DSPLY_FLAG":"Y","OBJECTID":146}},{"type":"Feature","id":147,"geometry":{"type":"Point","coordinates":[-99.717938278341,33.1915656835254]},"properties":{"GID":70,"ARPRT_NM":"Haskell Municipal","CSTMS_FLAG":"N","FAA_CD":"15F","CNTY_NBR":105,"DIST_NBR":8,"DSPLY_FLAG":"Y","OBJECTID":147}},{"type":"Feature","id":148,"geometry":{"type":"Point","coordinates":[-95.8964273266784,33.2928958734793]},"properties":{"GID":71,"ARPRT_NM":"Commerce Municipal","CSTMS_FLAG":"N","FAA_CD":"2F7","CNTY_NBR":117,"DIST_NBR":1,"DSPLY_FLAG":"N","OBJECTID":148}},{"type":"Feature","id":149,"geometry":{"type":"Point","coordinates":[-96.2431473981138,33.036225802352]},"properties":{"GID":72,"ARPRT_NM":"Caddo Mills Municipal","CSTMS_FLAG":"N","FAA_CD":"7F3","CNTY_NBR":117,"DIST_NBR":1,"DSPLY_FLAG":"N","OBJECTID":149}},{"type":"Feature","id":150,"geometry":{"type":"Point","coordinates":[-96.0958373495038,32.9522258084507]},"properties":{"GID":73,"ARPRT_NM":"Taylor","CSTMS_FLAG":"N","FAA_CD":"T14","CNTY_NBR":117,"DIST_NBR":1,"DSPLY_FLAG":"Y","OBJECTID":150}},{"type":"Feature","id":151,"geometry":{"type":"Point","coordinates":[-96.2191473799592,32.8681257777651]},"properties":{"GID":74,"ARPRT_NM":"Phillips Flying Ranch","CSTMS_FLAG":"N","FAA_CD":"T48","CNTY_NBR":117,"DIST_NBR":1,"DSPLY_FLAG":"Y","OBJECTID":151}},{"type":"Feature","id":152,"geometry":{"type":"Point","coordinates":[-96.8527875556135,33.1448458086625]},"properties":{"GID":75,"ARPRT_NM":"Frisco","CSTMS_FLAG":"N","FAA_CD":"DDJ","CNTY_NBR":61,"DIST_NBR":18,"DSPLY_FLAG":"N","OBJECTID":152}},{"type":"Feature","id":153,"geometry":{"type":"Point","coordinates":[-97.3169676756606,33.1987357921907]},"properties":{"GID":76,"ARPRT_NM":"Palmer Field","CSTMS_FLAG":"N","FAA_CD":"42F","CNTY_NBR":61,"DIST_NBR":18,"DSPLY_FLAG":"N","OBJECTID":153}},{"type":"Feature","id":154,"geometry":{"type":"Point","coordinates":[-97.2322476510468,33.0498457686802]},"properties":{"GID":77,"ARPRT_NM":"Northwest Regional","CSTMS_FLAG":"N","FAA_CD":"52F","CNTY_NBR":61,"DIST_NBR":18,"DSPLY_FLAG":"N","OBJECTID":154}},{"type":"Feature","id":155,"geometry":{"type":"Point","coordinates":[-97.1461276433852,33.3653958347269]},"properties":{"GID":78,"ARPRT_NM":"Lane Field","CSTMS_FLAG":"N","FAA_CD":"58F","CNTY_NBR":61,"DIST_NBR":18,"DSPLY_FLAG":"Y","OBJECTID":155}},{"type":"Feature","id":156,"geometry":{"type":"Point","coordinates":[-97.4516977215234,33.2665157916497]},"properties":{"GID":79,"ARPRT_NM":"Bishop","CSTMS_FLAG":"N","FAA_CD":"76T","CNTY_NBR":249,"DIST_NBR":2,"DSPLY_FLAG":"Y","OBJECTID":156}},{"type":"Feature","id":157,"geometry":{"type":"Point","coordinates":[-101.812668798022,33.4856456387439]},"properties":{"GID":80,"ARPRT_NM":"Town & Country Airpark","CSTMS_FLAG":"N","FAA_CD":"F82","CNTY_NBR":152,"DIST_NBR":5,"DSPLY_FLAG":"Y","OBJECTID":157}},{"type":"Feature","id":158,"geometry":{"type":"Point","coordinates":[-96.1793974164221,33.6117259182105]},"properties":{"GID":81,"ARPRT_NM":"Jones Field","CSTMS_FLAG":"N","FAA_CD":"F00","CNTY_NBR":75,"DIST_NBR":1,"DSPLY_FLAG":"N","OBJECTID":158}},{"type":"Feature","id":159,"geometry":{"type":"Point","coordinates":[-95.4507372328193,33.6366159597703]},"properties":{"GID":82,"ARPRT_NM":"Cox Field","CSTMS_FLAG":"N","FAA_CD":"PRX","CNTY_NBR":139,"DIST_NBR":1,"DSPLY_FLAG":"N","OBJECTID":159}},{"type":"Feature","id":160,"geometry":{"type":"Point","coordinates":[-97.2192676752159,33.5934458686753]},"properties":{"GID":83,"ARPRT_NM":"Freedom Field","CSTMS_FLAG":"N","FAA_CD":"7T0","CNTY_NBR":49,"DIST_NBR":3,"DSPLY_FLAG":"Y","OBJECTID":160}},{"type":"Feature","id":161,"geometry":{"type":"Point","coordinates":[-96.9072276016182,33.5715058785743]},"properties":{"GID":84,"ARPRT_NM":"Sudden Stop","CSTMS_FLAG":"N","FAA_CD":"T32","CNTY_NBR":92,"DIST_NBR":1,"DSPLY_FLAG":"Y","OBJECTID":161}},{"type":"Feature","id":162,"geometry":{"type":"Point","coordinates":[-96.6266675426614,33.7342759265325]},"properties":{"GID":85,"ARPRT_NM":"McKeon Aviation","CSTMS_FLAG":"N","FAA_CD":"8F8","CNTY_NBR":92,"DIST_NBR":1,"DSPLY_FLAG":"Y","OBJECTID":162}},{"type":"Feature","id":163,"geometry":{"type":"Point","coordinates":[-96.8116776011268,33.8400059370831]},"properties":{"GID":86,"ARPRT_NM":"Cedar Mills","CSTMS_FLAG":"N","FAA_CD":"3T0","CNTY_NBR":92,"DIST_NBR":1,"DSPLY_FLAG":"Y","OBJECTID":163}},{"type":"Feature","id":164,"geometry":{"type":"Point","coordinates":[-96.5861375162675,33.6241659049038]},"properties":{"GID":87,"ARPRT_NM":"Sherman Municipal","CSTMS_FLAG":"N","FAA_CD":"SWI","CNTY_NBR":92,"DIST_NBR":1,"DSPLY_FLAG":"N","OBJECTID":164}},{"type":"Feature","id":165,"geometry":{"type":"Point","coordinates":[-95.0635671335593,33.5931659700683]},"properties":{"GID":88,"ARPRT_NM":"Clarksville-Red River County","CSTMS_FLAG":"N","FAA_CD":"7F6","CNTY_NBR":194,"DIST_NBR":1,"DSPLY_FLAG":"N","OBJECTID":165}},{"type":"Feature","id":166,"geometry":{"type":"Point","coordinates":[-98.4904480228047,33.8612258648588]},"properties":{"GID":89,"ARPRT_NM":"Kickapoo Downtown Airpark","CSTMS_FLAG":"N","FAA_CD":"T47","CNTY_NBR":243,"DIST_NBR":3,"DSPLY_FLAG":"N","OBJECTID":166}},{"type":"Feature","id":167,"geometry":{"type":"Point","coordinates":[-99.712878326162,33.9792558268252]},"properties":{"GID":90,"ARPRT_NM":"Foard County","CSTMS_FLAG":"N","FAA_CD":"8F4","CNTY_NBR":79,"DIST_NBR":25,"DSPLY_FLAG":"Y","OBJECTID":167}},{"type":"Feature","id":168,"geometry":{"type":"Point","coordinates":[-101.33043871758,34.0023057483091]},"properties":{"GID":91,"ARPRT_NM":"Floydada Municipal","CSTMS_FLAG":"N","FAA_CD":"Q41","CNTY_NBR":78,"DIST_NBR":5,"DSPLY_FLAG":"Y","OBJECTID":168}},{"type":"Feature","id":169,"geometry":{"type":"Point","coordinates":[-102.641109040093,34.1851457158322]},"properties":{"GID":92,"ARPRT_NM":"Muleshoe Municipal","CSTMS_FLAG":"N","FAA_CD":"2T1","CNTY_NBR":9,"DIST_NBR":5,"DSPLY_FLAG":"Y","OBJECTID":169}},{"type":"Feature","id":170,"geometry":{"type":"Point","coordinates":[-100.529708579804,34.7395959152521]},"properties":{"GID":93,"ARPRT_NM":"Memphis Municipal","CSTMS_FLAG":"N","FAA_CD":"F21","CNTY_NBR":97,"DIST_NBR":25,"DSPLY_FLAG":"Y","OBJECTID":170}},{"type":"Feature","id":171,"geometry":{"type":"Point","coordinates":[-101.767138859249,34.3959057917176]},"properties":{"GID":94,"ARPRT_NM":"Joe Vaughn Spraying","CSTMS_FLAG":"N","FAA_CD":"29F","CNTY_NBR":219,"DIST_NBR":5,"DSPLY_FLAG":"Y","OBJECTID":171}},{"type":"Feature","id":172,"geometry":{"type":"Point","coordinates":[-101.961308949734,35.0653358915284]},"properties":{"GID":95,"ARPRT_NM":"Maples Field","CSTMS_FLAG":"N","FAA_CD":"1E9","CNTY_NBR":191,"DIST_NBR":4,"DSPLY_FLAG":"Y","OBJECTID":172}},{"type":"Feature","id":173,"geometry":{"type":"Point","coordinates":[-101.825888927664,35.169895921206]},"properties":{"GID":96,"ARPRT_NM":"Tradewind","CSTMS_FLAG":"N","FAA_CD":"TDW","CNTY_NBR":191,"DIST_NBR":4,"DSPLY_FLAG":"N","OBJECTID":173}},{"type":"Feature","id":174,"geometry":{"type":"Point","coordinates":[-100.199928557111,35.4510860523263]},"properties":{"GID":97,"ARPRT_NM":"Wheeler Municipal","CSTMS_FLAG":"N","FAA_CD":"T59","CNTY_NBR":242,"DIST_NBR":25,"DSPLY_FLAG":"Y","OBJECTID":174}},{"type":"Feature","id":175,"geometry":{"type":"Point","coordinates":[-100.544028618359,35.2469960024187]},"properties":{"GID":98,"ARPRT_NM":"McLean/Gray County","CSTMS_FLAG":"N","FAA_CD":"2E7","CNTY_NBR":91,"DIST_NBR":4,"DSPLY_FLAG":"Y","OBJECTID":175}},{"type":"Feature","id":176,"geometry":{"type":"Point","coordinates":[-102.39909906405,35.232005896791]},"properties":{"GID":99,"ARPRT_NM":"Oldham County","CSTMS_FLAG":"N","FAA_CD":"E52","CNTY_NBR":180,"DIST_NBR":4,"DSPLY_FLAG":"Y","OBJECTID":176}},{"type":"Feature","id":177,"geometry":{"type":"Point","coordinates":[-101.828788994828,36.0292060645003]},"properties":{"GID":100,"ARPRT_NM":"Sunray Airport","CSTMS_FLAG":"N","FAA_CD":"Q43","CNTY_NBR":171,"DIST_NBR":4,"DSPLY_FLAG":"Y","OBJECTID":177}},{"type":"Feature","id":178,"geometry":{"type":"Point","coordinates":[-100.603198674321,35.7139360748639]},"properties":{"GID":101,"ARPRT_NM":"Miami-Roberts County","CSTMS_FLAG":"N","FAA_CD":"3E0","CNTY_NBR":197,"DIST_NBR":4,"DSPLY_FLAG":"Y","OBJECTID":178}},{"type":"Feature","id":179,"geometry":{"type":"Point","coordinates":[-101.432198914462,36.2337361158368]},"properties":{"GID":102,"ARPRT_NM":"Gruver Municipal","CSTMS_FLAG":"N","FAA_CD":"E19","CNTY_NBR":99,"DIST_NBR":4,"DSPLY_FLAG":"Y","OBJECTID":179}},{"type":"Feature","id":180,"geometry":{"type":"Point","coordinates":[-101.194508860264,36.2210061217816]},"properties":{"GID":103,"ARPRT_NM":"Spearman Municipal","CSTMS_FLAG":"N","FAA_CD":"E42","CNTY_NBR":99,"DIST_NBR":4,"DSPLY_FLAG":"Y","OBJECTID":180}},{"type":"Feature","id":181,"geometry":{"type":"Point","coordinates":[-100.123838613296,36.4408162255074]},"properties":{"GID":104,"ARPRT_NM":"Follett/Lipscomb County","CSTMS_FLAG":"N","FAA_CD":"T93","CNTY_NBR":148,"DIST_NBR":4,"DSPLY_FLAG":"Y","OBJECTID":181}},{"type":"Feature","id":182,"geometry":{"type":"Point","coordinates":[-100.025718566014,36.1059061716226]},"properties":{"GID":105,"ARPRT_NM":"Higgins-Lipscomb County","CSTMS_FLAG":"N","FAA_CD":"1X1","CNTY_NBR":148,"DIST_NBR":4,"DSPLY_FLAG":"Y","OBJECTID":182}},{"type":"Feature","id":183,"geometry":{"type":"Point","coordinates":[-102.104079076391,36.2194860787816]},"properties":{"GID":106,"ARPRT_NM":"Pronger Bros Ranch","CSTMS_FLAG":"N","FAA_CD":"3E7","CNTY_NBR":211,"DIST_NBR":4,"DSPLY_FLAG":"Y","OBJECTID":183}},{"type":"Feature","id":184,"geometry":{"type":"Point","coordinates":[-102.415759140257,36.0917060327373]},"properties":{"GID":107,"ARPRT_NM":"Miller Airfield","CSTMS_FLAG":"N","FAA_CD":"2E1","CNTY_NBR":56,"DIST_NBR":4,"DSPLY_FLAG":"N","OBJECTID":184}},{"type":"Feature","id":185,"geometry":{"type":"Point","coordinates":[-94.698827010238,33.1267958966131]},"properties":{"GID":108,"ARPRT_NM":"Greater Morris County","CSTMS_FLAG":"N","FAA_CD":"8F5","CNTY_NBR":172,"DIST_NBR":19,"DSPLY_FLAG":"Y","OBJECTID":185}},{"type":"Feature","id":186,"geometry":{"type":"Point","coordinates":[-102.538134330827,32.9571441081325]},"properties":{"GID":109,"ARPRT_NM":"Seagraves","CSTMS_FLAG":"N","FAA_CD":"F97","CNTY_NBR":84,"DIST_NBR":5,"DSPLY_FLAG":"N","OBJECTID":186}},{"type":"Feature","id":187,"geometry":{"type":"Point","coordinates":[-99.8248212537769,28.6969381422028]},"properties":{"GID":110,"ARPRT_NM":"Crystal City Municipal Airport","CSTMS_FLAG":"N","FAA_CD":"20R","CNTY_NBR":254,"DIST_NBR":22,"DSPLY_FLAG":"N","OBJECTID":187}},{"type":"Feature","id":188,"geometry":{"type":"Point","coordinates":[-99.2177220699915,28.4548066792037]},"properties":{"GID":111,"ARPRT_NM":"Cotulla-La Salle County Airport","CSTMS_FLAG":"N","FAA_CD":"COT","CNTY_NBR":142,"DIST_NBR":22,"DSPLY_FLAG":"N","OBJECTID":188}},{"type":"Feature","id":189,"geometry":{"type":"Point","coordinates":[-101.366965223145,35.3613687684339]},"properties":{"GID":112,"ARPRT_NM":"Panhandle-Carson County","CSTMS_FLAG":"N","FAA_CD":"T45","CNTY_NBR":33,"DIST_NBR":4,"DSPLY_FLAG":"Y","OBJECTID":189}},{"type":"Feature","id":190,"geometry":{"type":"Point","coordinates":[-99.1509227489831,33.1793871490359]},"properties":{"GID":113,"ARPRT_NM":"Throckmorton Municipal","CSTMS_FLAG":"N","FAA_CD":"72F","CNTY_NBR":224,"DIST_NBR":3,"DSPLY_FLAG":"N","OBJECTID":190}},{"type":"Feature","id":191,"geometry":{"type":"Point","coordinates":[-94.1693453760698,31.5395844918919]},"properties":{"GID":114,"ARPRT_NM":"San Augustine County","CSTMS_FLAG":"N","FAA_CD":"78R","CNTY_NBR":203,"DIST_NBR":11,"DSPLY_FLAG":"Y","OBJECTID":191}},{"type":"Feature","id":192,"geometry":{"type":"Point","coordinates":[-94.4588118879122,30.7753815715922]},"properties":{"GID":115,"ARPRT_NM":"Tyler County","CSTMS_FLAG":"N","FAA_CD":"09R","CNTY_NBR":229,"DIST_NBR":20,"DSPLY_FLAG":"Y","OBJECTID":192}},{"type":"Feature","id":193,"geometry":{"type":"Point","coordinates":[-97.6543974521744,26.2285043998133]},"properties":{"GID":116,"ARPRT_NM":"Rio Grande Valley International Airport","CSTMS_FLAG":"Y","FAA_CD":"HRL","CNTY_NBR":31,"DIST_NBR":21,"DSPLY_FLAG":"N","OBJECTID":193}},{"type":"Feature","id":194,"geometry":{"type":"Point","coordinates":[-97.3458973687184,26.1662143893305]},"properties":{"GID":117,"ARPRT_NM":"Port Isabel-Cameron County Airport","CSTMS_FLAG":"N","FAA_CD":"PIL","CNTY_NBR":31,"DIST_NBR":21,"DSPLY_FLAG":"N","OBJECTID":194}},{"type":"Feature","id":195,"geometry":{"type":"Point","coordinates":[-97.4258673814858,25.9068343324316]},"properties":{"GID":118,"ARPRT_NM":"Brownsville-South Padre Island Airport","CSTMS_FLAG":"Y","FAA_CD":"BRO","CNTY_NBR":31,"DIST_NBR":21,"DSPLY_FLAG":"N","OBJECTID":195}},{"type":"Feature","id":196,"geometry":{"type":"Point","coordinates":[-97.4377674008855,26.5628444740579]},"properties":{"GID":119,"ARPRT_NM":"Charles R. Johnson Airport","CSTMS_FLAG":"N","FAA_CD":"T05","CNTY_NBR":245,"DIST_NBR":21,"DSPLY_FLAG":"N","OBJECTID":196}},{"type":"Feature","id":197,"geometry":{"type":"Point","coordinates":[-98.1294575743789,26.4420144271248]},"properties":{"GID":120,"ARPRT_NM":"Edinburg International Airport","CSTMS_FLAG":"N","FAA_CD":"25R","CNTY_NBR":109,"DIST_NBR":21,"DSPLY_FLAG":"N","OBJECTID":197}},{"type":"Feature","id":198,"geometry":{"type":"Point","coordinates":[-98.2386175913122,26.1758343735657]},"properties":{"GID":121,"ARPRT_NM":"McAllen-Miller International Airport","CSTMS_FLAG":"Y","FAA_CD":"MFE","CNTY_NBR":109,"DIST_NBR":21,"DSPLY_FLAG":"N","OBJECTID":198}},{"type":"Feature","id":199,"geometry":{"type":"Point","coordinates":[-97.9730675246586,26.1776443792068]},"properties":{"GID":122,"ARPRT_NM":"Mid Valley Airport","CSTMS_FLAG":"N","FAA_CD":"T65","CNTY_NBR":109,"DIST_NBR":21,"DSPLY_FLAG":"N","OBJECTID":199}},{"type":"Feature","id":200,"geometry":{"type":"Point","coordinates":[-98.121177596691,27.206834592688]},"properties":{"GID":124,"ARPRT_NM":"Brooks County Airport","CSTMS_FLAG":"N","FAA_CD":"T18","CNTY_NBR":24,"DIST_NBR":21,"DSPLY_FLAG":"N","OBJECTID":200}},{"type":"Feature","id":201,"geometry":{"type":"Point","coordinates":[-99.2489178657615,26.9687945094493]},"properties":{"GID":125,"ARPRT_NM":"Zapata County Airport","CSTMS_FLAG":"N","FAA_CD":"T86","CNTY_NBR":253,"DIST_NBR":21,"DSPLY_FLAG":"N","OBJECTID":201}},{"type":"Feature","id":202,"geometry":{"type":"Point","coordinates":[-98.7369777581137,27.3495646040903]},"properties":{"GID":126,"ARPRT_NM":"Jim Hogg County Airport","CSTMS_FLAG":"N","FAA_CD":"HBV","CNTY_NBR":125,"DIST_NBR":21,"DSPLY_FLAG":"N","OBJECTID":202}},{"type":"Feature","id":203,"geometry":{"type":"Point","coordinates":[-98.0309275836123,27.5508646634704]},"properties":{"GID":127,"ARPRT_NM":"Kleberg County Airport","CSTMS_FLAG":"N","FAA_CD":"T80","CNTY_NBR":137,"DIST_NBR":16,"DSPLY_FLAG":"N","OBJECTID":203}},{"type":"Feature","id":204,"geometry":{"type":"Point","coordinates":[-98.0269475932545,27.7408946972537]},"properties":{"GID":128,"ARPRT_NM":"Alice International Airport","CSTMS_FLAG":"N","FAA_CD":"ALI","CNTY_NBR":126,"DIST_NBR":16,"DSPLY_FLAG":"N","OBJECTID":204}},{"type":"Feature","id":205,"geometry":{"type":"Point","coordinates":[-99.4615479310926,27.543744622483]},"properties":{"GID":129,"ARPRT_NM":"Laredo International Airport","CSTMS_FLAG":"Y","FAA_CD":"LRD","CNTY_NBR":240,"DIST_NBR":22,"DSPLY_FLAG":"N","OBJECTID":205}},{"type":"Feature","id":206,"geometry":{"type":"Point","coordinates":[-97.044617356018,28.0867848002058]},"properties":{"GID":130,"ARPRT_NM":"Aransas County Airport","CSTMS_FLAG":"N","FAA_CD":"RKP","CNTY_NBR":4,"DIST_NBR":16,"DSPLY_FLAG":"N","OBJECTID":206}},{"type":"Feature","id":207,"geometry":{"type":"Point","coordinates":[-96.6813172877927,28.6540549266561]},"properties":{"GID":131,"ARPRT_NM":"Calhoun County Airport","CSTMS_FLAG":"N","FAA_CD":"T97","CNTY_NBR":29,"DIST_NBR":13,"DSPLY_FLAG":"N","OBJECTID":207}},{"type":"Feature","id":208,"geometry":{"type":"Point","coordinates":[-96.918497355828,28.8525649635358]},"properties":{"GID":132,"ARPRT_NM":"Victoria Regional Airport","CSTMS_FLAG":"N","FAA_CD":"VCT","CNTY_NBR":235,"DIST_NBR":13,"DSPLY_FLAG":"N","OBJECTID":208}},{"type":"Feature","id":209,"geometry":{"type":"Point","coordinates":[-96.2509771788089,28.7275249510609]},"properties":{"GID":133,"ARPRT_NM":"Palacios Municipal Airport","CSTMS_FLAG":"N","FAA_CD":"PSX","CNTY_NBR":158,"DIST_NBR":13,"DSPLY_FLAG":"N","OBJECTID":209}},{"type":"Feature","id":210,"geometry":{"type":"Point","coordinates":[-98.5199877545854,28.9541949258576]},"properties":{"GID":134,"ARPRT_NM":"Pleasanton Municipal Airport","CSTMS_FLAG":"N","FAA_CD":"PEZ","CNTY_NBR":7,"DIST_NBR":15,"DSPLY_FLAG":"N","OBJECTID":210}},{"type":"Feature","id":211,"geometry":{"type":"Point","coordinates":[-96.5819572788564,29.0010150007061]},"properties":{"GID":135,"ARPRT_NM":"Jackson County Airport","CSTMS_FLAG":"N","FAA_CD":"26R","CNTY_NBR":121,"DIST_NBR":13,"DSPLY_FLAG":"N","OBJECTID":211}},{"type":"Feature","id":212,"geometry":{"type":"Point","coordinates":[-94.8604168492843,29.2653251140185]},"properties":{"GID":136,"ARPRT_NM":"Scholes International Airport","CSTMS_FLAG":"Y","FAA_CD":"GLS","CNTY_NBR":85,"DIST_NBR":12,"DSPLY_FLAG":"N","OBJECTID":212}},{"type":"Feature","id":213,"geometry":{"type":"Point","coordinates":[-95.0513369105292,29.5083651586288]},"properties":{"GID":137,"ARPRT_NM":"Houston Gulf Airport","CSTMS_FLAG":"N","FAA_CD":"SPX","CNTY_NBR":85,"DIST_NBR":12,"DSPLY_FLAG":"N","OBJECTID":213}},{"type":"Feature","id":214,"geometry":{"type":"Point","coordinates":[-95.2421769570351,29.5213151511748]},"properties":{"GID":138,"ARPRT_NM":"Pearland Regional Airport","CSTMS_FLAG":"N","FAA_CD":"LVJ","CNTY_NBR":20,"DIST_NBR":12,"DSPLY_FLAG":"N","OBJECTID":214}},{"type":"Feature","id":215,"geometry":{"type":"Point","coordinates":[-95.3271669819856,29.4799651402283]},"properties":{"GID":139,"ARPRT_NM":"Wolfe Airpark","CSTMS_FLAG":"N","FAA_CD":"3T2","CNTY_NBR":20,"DIST_NBR":12,"DSPLY_FLAG":"N","OBJECTID":215}},{"type":"Feature","id":216,"geometry":{"type":"Point","coordinates":[-95.4620869945815,29.1086450617974]},"properties":{"GID":140,"ARPRT_NM":"Brazoria County Airport","CSTMS_FLAG":"N","FAA_CD":"LBX","CNTY_NBR":20,"DIST_NBR":12,"DSPLY_FLAG":"N","OBJECTID":216}},{"type":"Feature","id":217,"geometry":{"type":"Point","coordinates":[-99.7435880704812,29.2113549389337]},"properties":{"GID":141,"ARPRT_NM":"Garner Airfield","CSTMS_FLAG":"N","FAA_CD":"UVA","CNTY_NBR":232,"DIST_NBR":15,"DSPLY_FLAG":"N","OBJECTID":217}},{"type":"Feature","id":218,"geometry":{"type":"Point","coordinates":[-97.1384074248155,29.3131650492636]},"properties":{"GID":142,"ARPRT_NM":"Yoakum Municipal Airport","CSTMS_FLAG":"N","FAA_CD":"T85","CNTY_NBR":143,"DIST_NBR":13,"DSPLY_FLAG":"N","OBJECTID":218}},{"type":"Feature","id":219,"geometry":{"type":"Point","coordinates":[-96.1543971834874,29.2542850650213]},"properties":{"GID":143,"ARPRT_NM":"Wharton Regional Airport","CSTMS_FLAG":"N","FAA_CD":"5R5","CNTY_NBR":241,"DIST_NBR":13,"DSPLY_FLAG":"N","OBJECTID":219}},{"type":"Feature","id":220,"geometry":{"type":"Point","coordinates":[-98.8509078588501,29.3419249992596]},"properties":{"GID":144,"ARPRT_NM":"Castroville Municipal Airport","CSTMS_FLAG":"N","FAA_CD":"T89","CNTY_NBR":163,"DIST_NBR":15,"DSPLY_FLAG":"N","OBJECTID":220}},{"type":"Feature","id":221,"geometry":{"type":"Point","coordinates":[-99.1766779377606,29.3595349883127]},"properties":{"GID":145,"ARPRT_NM":"Hondo Municipal Airport","CSTMS_FLAG":"N","FAA_CD":"HDO","CNTY_NBR":163,"DIST_NBR":15,"DSPLY_FLAG":"N","OBJECTID":221}},{"type":"Feature","id":222,"geometry":{"type":"Point","coordinates":[-98.4711477602479,29.3370150124353]},"properties":{"GID":146,"ARPRT_NM":"Stinson Municipal Airport","CSTMS_FLAG":"N","FAA_CD":"SSF","CNTY_NBR":15,"DIST_NBR":15,"DSPLY_FLAG":"N","OBJECTID":222}},{"type":"Feature","id":223,"geometry":{"type":"Point","coordinates":[-98.4697877737898,29.5336950444925]},"properties":{"GID":147,"ARPRT_NM":"San Antonio International Airport","CSTMS_FLAG":"Y","FAA_CD":"SAT","CNTY_NBR":15,"DIST_NBR":15,"DSPLY_FLAG":"N","OBJECTID":223}},{"type":"Feature","id":224,"geometry":{"type":"Point","coordinates":[-95.4769270211414,29.5061451390017]},"properties":{"GID":148,"ARPRT_NM":"Houston-Southwest Airport","CSTMS_FLAG":"N","FAA_CD":"AXH","CNTY_NBR":80,"DIST_NBR":12,"DSPLY_FLAG":"N","OBJECTID":224}},{"type":"Feature","id":225,"geometry":{"type":"Point","coordinates":[-95.6565370692787,29.6222551571666]},"properties":{"GID":149,"ARPRT_NM":"Sugar Land Regional Airport","CSTMS_FLAG":"N","FAA_CD":"SGR","CNTY_NBR":80,"DIST_NBR":12,"DSPLY_FLAG":"N","OBJECTID":225}},{"type":"Feature","id":226,"geometry":{"type":"Point","coordinates":[-95.7946771100785,29.6946851700745]},"properties":{"GID":150,"ARPRT_NM":"Westheimer Airpark","CSTMS_FLAG":"N","FAA_CD":"O07","CNTY_NBR":80,"DIST_NBR":12,"DSPLY_FLAG":"N","OBJECTID":226}},{"type":"Feature","id":227,"geometry":{"type":"Point","coordinates":[-98.0422276766242,29.70450510027]},"properties":{"GID":151,"ARPRT_NM":"New Braunfels Municipal Airport","CSTMS_FLAG":"N","FAA_CD":"BAZ","CNTY_NBR":95,"DIST_NBR":15,"DSPLY_FLAG":"N","OBJECTID":227}},{"type":"Feature","id":228,"geometry":{"type":"Point","coordinates":[-94.6636168249231,29.7700052183378]},"properties":{"GID":152,"ARPRT_NM":"Chambers County Airport","CSTMS_FLAG":"N","FAA_CD":"T00","CNTY_NBR":36,"DIST_NBR":20,"DSPLY_FLAG":"N","OBJECTID":228}},{"type":"Feature","id":229,"geometry":{"type":"Point","coordinates":[-96.3224872355229,29.6030151318935]},"properties":{"GID":153,"ARPRT_NM":"Eagle Lake Airport","CSTMS_FLAG":"N","FAA_CD":"ELA","CNTY_NBR":45,"DIST_NBR":13,"DSPLY_FLAG":"N","OBJECTID":229}},{"type":"Feature","id":230,"geometry":{"type":"Point","coordinates":[-97.6724275876493,29.8503351417577]},"properties":{"GID":154,"ARPRT_NM":"Lockhart Municipal Airport","CSTMS_FLAG":"N","FAA_CD":"50R","CNTY_NBR":28,"DIST_NBR":14,"DSPLY_FLAG":"N","OBJECTID":230}},{"type":"Feature","id":231,"geometry":{"type":"Point","coordinates":[-97.8646976388997,29.8936151374997]},"properties":{"GID":155,"ARPRT_NM":"San Marcos Municipal Airport","CSTMS_FLAG":"N","FAA_CD":"HYI","CNTY_NBR":28,"DIST_NBR":14,"DSPLY_FLAG":"N","OBJECTID":231}},{"type":"Feature","id":232,"geometry":{"type":"Point","coordinates":[-95.6726170862393,29.8181952022603]},"properties":{"GID":156,"ARPRT_NM":"West Houston Airport","CSTMS_FLAG":"N","FAA_CD":"IWS","CNTY_NBR":102,"DIST_NBR":12,"DSPLY_FLAG":"N","OBJECTID":232}},{"type":"Feature","id":233,"geometry":{"type":"Point","coordinates":[-95.2788969749841,29.6454251779152]},"properties":{"GID":157,"ARPRT_NM":"William P. Hobby Airport","CSTMS_FLAG":"Y","FAA_CD":"HOU","CNTY_NBR":102,"DIST_NBR":12,"DSPLY_FLAG":"N","OBJECTID":233}},{"type":"Feature","id":234,"geometry":{"type":"Point","coordinates":[-95.3397270017093,29.980475244182]},"properties":{"GID":158,"ARPRT_NM":"George Bush Intercontinental Airport","CSTMS_FLAG":"Y","FAA_CD":"IAH","CNTY_NBR":102,"DIST_NBR":12,"DSPLY_FLAG":"N","OBJECTID":234}},{"type":"Feature","id":235,"geometry":{"type":"Point","coordinates":[-95.5527870609226,30.0618652560908]},"properties":{"GID":159,"ARPRT_NM":"Hooks Memorial Airport","CSTMS_FLAG":"N","FAA_CD":"DWH","CNTY_NBR":102,"DIST_NBR":12,"DSPLY_FLAG":"N","OBJECTID":235}},{"type":"Feature","id":236,"geometry":{"type":"Point","coordinates":[-95.0641969190488,29.6692551908597]},"properties":{"GID":160,"ARPRT_NM":"La Porte Municipal Airport","CSTMS_FLAG":"N","FAA_CD":"T41","CNTY_NBR":102,"DIST_NBR":12,"DSPLY_FLAG":"N","OBJECTID":236}},{"type":"Feature","id":237,"geometry":{"type":"Point","coordinates":[-94.2155467255671,30.0704452985868]},"properties":{"GID":161,"ARPRT_NM":"Beaumont Municipal Airport","CSTMS_FLAG":"Y","FAA_CD":"BMT","CNTY_NBR":124,"DIST_NBR":20,"DSPLY_FLAG":"N","OBJECTID":237}},{"type":"Feature","id":238,"geometry":{"type":"Point","coordinates":[-94.0206966652099,29.9508352830849]},"properties":{"GID":162,"ARPRT_NM":"Jack Brooks Regional Airport","CSTMS_FLAG":"N","FAA_CD":"BPT","CNTY_NBR":124,"DIST_NBR":20,"DSPLY_FLAG":"N","OBJECTID":238}},{"type":"Feature","id":239,"geometry":{"type":"Point","coordinates":[-93.8009266049477,30.0691753180011]},"properties":{"GID":163,"ARPRT_NM":"Orange County Airport","CSTMS_FLAG":"N","FAA_CD":"ORG","CNTY_NBR":181,"DIST_NBR":20,"DSPLY_FLAG":"N","OBJECTID":239}},{"type":"Feature","id":240,"geometry":{"type":"Point","coordinates":[-99.0856879392633,29.9767451129576]},"properties":{"GID":164,"ARPRT_NM":"Kerrville Municipal-Louis Schreiner Field","CSTMS_FLAG":"N","FAA_CD":"ERV","CNTY_NBR":133,"DIST_NBR":15,"DSPLY_FLAG":"N","OBJECTID":240}},{"type":"Feature","id":241,"geometry":{"type":"Point","coordinates":[-96.3742872775363,30.2190052578425]},"properties":{"GID":165,"ARPRT_NM":"Brenham Municipal Airport","CSTMS_FLAG":"N","FAA_CD":"11R","CNTY_NBR":239,"DIST_NBR":17,"DSPLY_FLAG":"N","OBJECTID":241}},{"type":"Feature","id":242,"geometry":{"type":"Point","coordinates":[-97.1668774768918,30.0304851906603]},"properties":{"GID":166,"ARPRT_NM":"Smithville-Crawford Municipal Airport","CSTMS_FLAG":"N","FAA_CD":"84R","CNTY_NBR":11,"DIST_NBR":14,"DSPLY_FLAG":"N","OBJECTID":242}},{"type":"Feature","id":243,"geometry":{"type":"Point","coordinates":[-95.0080169342552,30.3564353345023]},"properties":{"GID":167,"ARPRT_NM":"Cleveland Municipal Airport","CSTMS_FLAG":"N","FAA_CD":"6R3","CNTY_NBR":146,"DIST_NBR":20,"DSPLY_FLAG":"N","OBJECTID":243}},{"type":"Feature","id":244,"geometry":{"type":"Point","coordinates":[-94.6985668437587,30.0778152849125]},"properties":{"GID":168,"ARPRT_NM":"Liberty Municipal Airport","CSTMS_FLAG":"N","FAA_CD":"T78","CNTY_NBR":146,"DIST_NBR":20,"DSPLY_FLAG":"N","OBJECTID":244}},{"type":"Feature","id":245,"geometry":{"type":"Point","coordinates":[-98.9095379114446,30.2436951664868]},"properties":{"GID":169,"ARPRT_NM":"Gillespie County Airport","CSTMS_FLAG":"N","FAA_CD":"T82","CNTY_NBR":87,"DIST_NBR":14,"DSPLY_FLAG":"N","OBJECTID":245}},{"type":"Feature","id":246,"geometry":{"type":"Point","coordinates":[-97.6698976021274,30.1945352020087]},"properties":{"GID":170,"ARPRT_NM":"Austin-Bergstrom International Airport","CSTMS_FLAG":"Y","FAA_CD":"AUS","CNTY_NBR":227,"DIST_NBR":14,"DSPLY_FLAG":"N","OBJECTID":246}},{"type":"Feature","id":247,"geometry":{"type":"Point","coordinates":[-104.016699120579,30.3714749940072]},"properties":{"GID":171,"ARPRT_NM":"Marfa Municipal Airport","CSTMS_FLAG":"N","FAA_CD":"MRF","CNTY_NBR":189,"DIST_NBR":24,"DSPLY_FLAG":"N","OBJECTID":247}},{"type":"Feature","id":248,"geometry":{"type":"Point","coordinates":[-104.36159916752,29.6340748529982]},"properties":{"GID":172,"ARPRT_NM":"Presidio Lely International Airport","CSTMS_FLAG":"Y","FAA_CD":"T77","CNTY_NBR":189,"DIST_NBR":24,"DSPLY_FLAG":"N","OBJECTID":248}},{"type":"Feature","id":249,"geometry":{"type":"Point","coordinates":[-95.4144770427013,30.3518353216167]},"properties":{"GID":173,"ARPRT_NM":"Lone Star Executive Airport","CSTMS_FLAG":"N","FAA_CD":"CXO","CNTY_NBR":170,"DIST_NBR":12,"DSPLY_FLAG":"N","OBJECTID":249}},{"type":"Feature","id":250,"geometry":{"type":"Point","coordinates":[-102.21291869211,30.0460250097034]},"properties":{"GID":174,"ARPRT_NM":"Terrell County Airport","CSTMS_FLAG":"N","FAA_CD":"6R6","CNTY_NBR":222,"DIST_NBR":6,"DSPLY_FLAG":"N","OBJECTID":250}},{"type":"Feature","id":251,"geometry":{"type":"Point","coordinates":[-103.683589050314,30.3842250112629]},"properties":{"GID":175,"ARPRT_NM":"Alpine-Casparis Municipal Airport","CSTMS_FLAG":"N","FAA_CD":"E38","CNTY_NBR":22,"DIST_NBR":24,"DSPLY_FLAG":"N","OBJECTID":251}},{"type":"Feature","id":252,"geometry":{"type":"Point","coordinates":[-100.648578350998,30.5857151704778]},"properties":{"GID":176,"ARPRT_NM":"Sonora Municipal Airport","CSTMS_FLAG":"N","FAA_CD":"E29","CNTY_NBR":218,"DIST_NBR":7,"DSPLY_FLAG":"N","OBJECTID":252}},{"type":"Feature","id":253,"geometry":{"type":"Point","coordinates":[-99.7634681299769,30.511265189231]},"properties":{"GID":177,"ARPRT_NM":"Kimble County Airport","CSTMS_FLAG":"N","FAA_CD":"JCT","CNTY_NBR":134,"DIST_NBR":7,"DSPLY_FLAG":"N","OBJECTID":253}},{"type":"Feature","id":254,"geometry":{"type":"Point","coordinates":[-96.7040973758252,30.5154853020757]},"properties":{"GID":178,"ARPRT_NM":"Caldwell Municipal Airport","CSTMS_FLAG":"N","FAA_CD":"14R","CNTY_NBR":26,"DIST_NBR":17,"DSPLY_FLAG":"N","OBJECTID":254}},{"type":"Feature","id":255,"geometry":{"type":"Point","coordinates":[-97.6793876284694,30.6788153014416]},"properties":{"GID":179,"ARPRT_NM":"Georgetown Municipal Airport","CSTMS_FLAG":"N","FAA_CD":"GTU","CNTY_NBR":246,"DIST_NBR":14,"DSPLY_FLAG":"N","OBJECTID":255}},{"type":"Feature","id":256,"geometry":{"type":"Point","coordinates":[-97.4431775630746,30.5719452854457]},"properties":{"GID":180,"ARPRT_NM":"Taylor Municipal Airport","CSTMS_FLAG":"N","FAA_CD":"T74","CNTY_NBR":246,"DIST_NBR":14,"DSPLY_FLAG":"N","OBJECTID":256}},{"type":"Feature","id":257,"geometry":{"type":"Point","coordinates":[-96.3313672932105,30.7156953547984]},"properties":{"GID":181,"ARPRT_NM":"Coulter Airfield","CSTMS_FLAG":"N","FAA_CD":"CFD","CNTY_NBR":21,"DIST_NBR":17,"DSPLY_FLAG":"N","OBJECTID":257}},{"type":"Feature","id":258,"geometry":{"type":"Point","coordinates":[-96.3638272988595,30.5885953289204]},"properties":{"GID":182,"ARPRT_NM":"Easterwood Airport","CSTMS_FLAG":"N","FAA_CD":"CLL","CNTY_NBR":21,"DIST_NBR":17,"DSPLY_FLAG":"N","OBJECTID":258}},{"type":"Feature","id":259,"geometry":{"type":"Point","coordinates":[-98.2385877726346,30.7389452886738]},"properties":{"GID":183,"ARPRT_NM":"Burnet Municipal Kate Craddock Field","CSTMS_FLAG":"N","FAA_CD":"BMQ","CNTY_NBR":27,"DIST_NBR":14,"DSPLY_FLAG":"N","OBJECTID":259}},{"type":"Feature","id":260,"geometry":{"type":"Point","coordinates":[-98.1211377258654,30.4779752416639]},"properties":{"GID":184,"ARPRT_NM":"Spicewood Airport","CSTMS_FLAG":"N","FAA_CD":"88R","CNTY_NBR":27,"DIST_NBR":14,"DSPLY_FLAG":"N","OBJECTID":260}},{"type":"Feature","id":261,"geometry":{"type":"Point","coordinates":[-95.5871771014511,30.7468953870078]},"properties":{"GID":185,"ARPRT_NM":"Huntsville Municipal Airport","CSTMS_FLAG":"N","FAA_CD":"UTS","CNTY_NBR":236,"DIST_NBR":17,"DSPLY_FLAG":"N","OBJECTID":261}},{"type":"Feature","id":262,"geometry":{"type":"Point","coordinates":[-101.202978496563,30.7352851763748]},"properties":{"GID":186,"ARPRT_NM":"Ozona Municipal Airport","CSTMS_FLAG":"N","FAA_CD":"OZA","CNTY_NBR":53,"DIST_NBR":7,"DSPLY_FLAG":"N","OBJECTID":262}},{"type":"Feature","id":263,"geometry":{"type":"Point","coordinates":[-95.0179369553776,30.6858653967203]},"properties":{"GID":187,"ARPRT_NM":"Livingston Municipal Airport","CSTMS_FLAG":"N","FAA_CD":"00R","CNTY_NBR":187,"DIST_NBR":11,"DSPLY_FLAG":"N","OBJECTID":263}},{"type":"Feature","id":264,"geometry":{"type":"Point","coordinates":[-94.0349467106305,30.8857154704577]},"properties":{"GID":188,"ARPRT_NM":"Jasper County Airport-Bell Field","CSTMS_FLAG":"N","FAA_CD":"JAS","CNTY_NBR":122,"DIST_NBR":20,"DSPLY_FLAG":"N","OBJECTID":264}},{"type":"Feature","id":265,"geometry":{"type":"Point","coordinates":[-93.9149066690818,30.6465654274903]},"properties":{"GID":189,"ARPRT_NM":"Kirbyville Airport","CSTMS_FLAG":"N","FAA_CD":"T12","CNTY_NBR":122,"DIST_NBR":20,"DSPLY_FLAG":"N","OBJECTID":265}},{"type":"Feature","id":266,"geometry":{"type":"Point","coordinates":[-97.6865076556484,31.0858353778481]},"properties":{"GID":190,"ARPRT_NM":"Killeen Municipal Airport","CSTMS_FLAG":"N","FAA_CD":"ILE","CNTY_NBR":14,"DIST_NBR":9,"DSPLY_FLAG":"N","OBJECTID":266}},{"type":"Feature","id":267,"geometry":{"type":"Point","coordinates":[-97.4077875916336,31.1525053996206]},"properties":{"GID":191,"ARPRT_NM":"Draughon-Miller Central Texas Regional Airport","CSTMS_FLAG":"N","FAA_CD":"TPL","CNTY_NBR":14,"DIST_NBR":9,"DSPLY_FLAG":"N","OBJECTID":267}},{"type":"Feature","id":268,"geometry":{"type":"Point","coordinates":[-96.6222373714803,30.8718353777028]},"properties":{"GID":192,"ARPRT_NM":"Hearne Municipal Airport","CSTMS_FLAG":"N","FAA_CD":"T72","CNTY_NBR":198,"DIST_NBR":17,"DSPLY_FLAG":"N","OBJECTID":268}},{"type":"Feature","id":269,"geometry":{"type":"Point","coordinates":[-102.916148898628,30.9156751386566]},"properties":{"GID":193,"ARPRT_NM":"Fort Stockton-Pecos County Airport","CSTMS_FLAG":"N","FAA_CD":"FST","CNTY_NBR":186,"DIST_NBR":6,"DSPLY_FLAG":"N","OBJECTID":269}},{"type":"Feature","id":270,"geometry":{"type":"Point","coordinates":[-101.892078661802,30.9057151786656]},"properties":{"GID":194,"ARPRT_NM":"Iraan Municipal Airport","CSTMS_FLAG":"N","FAA_CD":"2F0","CNTY_NBR":186,"DIST_NBR":6,"DSPLY_FLAG":"N","OBJECTID":270}},{"type":"Feature","id":271,"geometry":{"type":"Point","coordinates":[-95.1641070185358,31.084915469515]},"properties":{"GID":195,"ARPRT_NM":"Groveton-Trinity County Airport","CSTMS_FLAG":"N","FAA_CD":"33R","CNTY_NBR":228,"DIST_NBR":11,"DSPLY_FLAG":"N","OBJECTID":271}},{"type":"Feature","id":272,"geometry":{"type":"Point","coordinates":[-99.3246480585599,31.1781753319435]},"properties":{"GID":196,"ARPRT_NM":"Curtis Airfield","CSTMS_FLAG":"N","FAA_CD":"BBD","CNTY_NBR":160,"DIST_NBR":23,"DSPLY_FLAG":"N","OBJECTID":272}},{"type":"Feature","id":273,"geometry":{"type":"Point","coordinates":[-102.362928799783,31.4151452500081]},"properties":{"GID":197,"ARPRT_NM":"Crane County Airport","CSTMS_FLAG":"N","FAA_CD":"E13","CNTY_NBR":52,"DIST_NBR":6,"DSPLY_FLAG":"N","OBJECTID":273}},{"type":"Feature","id":274,"geometry":{"type":"Point","coordinates":[-102.909048935321,31.5824752566462]},"properties":{"GID":198,"ARPRT_NM":"Roy Hurd Memorial Airport","CSTMS_FLAG":"N","FAA_CD":"E01","CNTY_NBR":238,"DIST_NBR":6,"DSPLY_FLAG":"N","OBJECTID":274}},{"type":"Feature","id":275,"geometry":{"type":"Point","coordinates":[-100.496318361492,31.3577553178295]},"properties":{"GID":199,"ARPRT_NM":"San Angelo Regional Airport/Mathis Airfield","CSTMS_FLAG":"N","FAA_CD":"SJT","CNTY_NBR":226,"DIST_NBR":7,"DSPLY_FLAG":"N","OBJECTID":275}},{"type":"Feature","id":276,"geometry":{"type":"Point","coordinates":[-96.5147273890441,31.6398355332682]},"properties":{"GID":200,"ARPRT_NM":"Mexia-Limestone County Airport","CSTMS_FLAG":"N","FAA_CD":"LXY","CNTY_NBR":147,"DIST_NBR":9,"DSPLY_FLAG":"N","OBJECTID":276}},{"type":"Feature","id":277,"geometry":{"type":"Point","coordinates":[-94.7095469209338,31.5780355878387]},"properties":{"GID":201,"ARPRT_NM":"A L Mangham Jr. Regional Airport","CSTMS_FLAG":"N","FAA_CD":"OCH","CNTY_NBR":174,"DIST_NBR":11,"DSPLY_FLAG":"N","OBJECTID":277}},{"type":"Feature","id":278,"geometry":{"type":"Point","coordinates":[-97.2305275686189,31.6112954934954]},"properties":{"GID":202,"ARPRT_NM":"Waco Regional Airport","CSTMS_FLAG":"N","FAA_CD":"ACT","CNTY_NBR":161,"DIST_NBR":9,"DSPLY_FLAG":"N","OBJECTID":278}},{"type":"Feature","id":279,"geometry":{"type":"Point","coordinates":[-97.3165375829638,31.4849254646807]},"properties":{"GID":203,"ARPRT_NM":"Mc Gregor Executive Airport","CSTMS_FLAG":"N","FAA_CD":"PWG","CNTY_NBR":161,"DIST_NBR":9,"DSPLY_FLAG":"N","OBJECTID":279}},{"type":"Feature","id":280,"geometry":{"type":"Point","coordinates":[-97.0741475333173,31.6378355121751]},"properties":{"GID":204,"ARPRT_NM":"Texas State Tech College-Waco Airport","CSTMS_FLAG":"N","FAA_CD":"CNW","CNTY_NBR":161,"DIST_NBR":9,"DSPLY_FLAG":"N","OBJECTID":280}},{"type":"Feature","id":281,"geometry":{"type":"Point","coordinates":[-94.1564267938004,31.8315856555553]},"properties":{"GID":205,"ARPRT_NM":"Center Municipal Airport","CSTMS_FLAG":"N","FAA_CD":"F17","CNTY_NBR":210,"DIST_NBR":11,"DSPLY_FLAG":"N","OBJECTID":281}},{"type":"Feature","id":282,"geometry":{"type":"Point","coordinates":[-103.510709066199,31.38236519945]},"properties":{"GID":206,"ARPRT_NM":"Pecos Municipal Airport","CSTMS_FLAG":"N","FAA_CD":"PEQ","CNTY_NBR":195,"DIST_NBR":6,"DSPLY_FLAG":"N","OBJECTID":282}},{"type":"Feature","id":283,"geometry":{"type":"Point","coordinates":[-104.783819331887,31.05784508539]},"properties":{"GID":207,"ARPRT_NM":"Culberson County Airport","CSTMS_FLAG":"N","FAA_CD":"VHN","CNTY_NBR":55,"DIST_NBR":24,"DSPLY_FLAG":"N","OBJECTID":283}},{"type":"Feature","id":284,"geometry":{"type":"Point","coordinates":[-106.377819728722,31.8066751404331]},"properties":{"GID":208,"ARPRT_NM":"El Paso International Airport","CSTMS_FLAG":"Y","FAA_CD":"ELP","CNTY_NBR":72,"DIST_NBR":24,"DSPLY_FLAG":"N","OBJECTID":284}},{"type":"Feature","id":285,"geometry":{"type":"Point","coordinates":[-106.149449708173,31.5166506100811]},"properties":{"GID":209,"ARPRT_NM":"Fabens Airport","CSTMS_FLAG":"N","FAA_CD":"E35","CNTY_NBR":72,"DIST_NBR":24,"DSPLY_FLAG":"N","OBJECTID":285}},{"type":"Feature","id":286,"geometry":{"type":"Point","coordinates":[-98.1486477960083,31.6659354690059]},"properties":{"GID":210,"ARPRT_NM":"Hamilton Municipal Airport","CSTMS_FLAG":"N","FAA_CD":"MNZ","CNTY_NBR":98,"DIST_NBR":9,"DSPLY_FLAG":"N","OBJECTID":286}},{"type":"Feature","id":287,"geometry":{"type":"Point","coordinates":[-99.4036181170587,31.8411454544038]},"properties":{"GID":211,"ARPRT_NM":"Coleman Municipal Airport","CSTMS_FLAG":"N","FAA_CD":"COM","CNTY_NBR":42,"DIST_NBR":23,"DSPLY_FLAG":"N","OBJECTID":287}},{"type":"Feature","id":288,"geometry":{"type":"Point","coordinates":[-99.9775382459124,31.6740453982385]},"properties":{"GID":212,"ARPRT_NM":"Bruce Airfield","CSTMS_FLAG":"N","FAA_CD":"E30","CNTY_NBR":200,"DIST_NBR":7,"DSPLY_FLAG":"N","OBJECTID":288}},{"type":"Feature","id":289,"geometry":{"type":"Point","coordinates":[-95.7063171918835,31.7796955918901]},"properties":{"GID":213,"ARPRT_NM":"Palestine Municipal Airport","CSTMS_FLAG":"N","FAA_CD":"PSN","CNTY_NBR":1,"DIST_NBR":10,"DSPLY_FLAG":"N","OBJECTID":289}},{"type":"Feature","id":290,"geometry":{"type":"Point","coordinates":[-102.20191879271,31.9425353530854]},"properties":{"GID":214,"ARPRT_NM":"Midland International Airport","CSTMS_FLAG":"Y","FAA_CD":"MAF","CNTY_NBR":165,"DIST_NBR":6,"DSPLY_FLAG":"N","OBJECTID":290}},{"type":"Feature","id":291,"geometry":{"type":"Point","coordinates":[-102.38709883219,31.9205753401183]},"properties":{"GID":215,"ARPRT_NM":"Odessa-Schelemeyer Field","CSTMS_FLAG":"N","FAA_CD":"ODO","CNTY_NBR":69,"DIST_NBR":6,"DSPLY_FLAG":"N","OBJECTID":291}},{"type":"Feature","id":292,"geometry":{"type":"Point","coordinates":[-103.201369017529,31.7796352758202]},"properties":{"GID":216,"ARPRT_NM":"Winkler County Airport","CSTMS_FLAG":"N","FAA_CD":"INK","CNTY_NBR":248,"DIST_NBR":6,"DSPLY_FLAG":"N","OBJECTID":292}},{"type":"Feature","id":293,"geometry":{"type":"Point","coordinates":[-95.2173970673649,31.8693456243222]},"properties":{"GID":217,"ARPRT_NM":"Cherokee County Airport","CSTMS_FLAG":"N","FAA_CD":"JSO","CNTY_NBR":37,"DIST_NBR":10,"DSPLY_FLAG":"N","OBJECTID":293}},{"type":"Feature","id":294,"geometry":{"type":"Point","coordinates":[-97.5699426201139,31.8173578777158]},"properties":{"GID":218,"ARPRT_NM":"Clifton Municipal Airport/Isenhower Field","CSTMS_FLAG":"N","FAA_CD":"7F7","CNTY_NBR":18,"DIST_NBR":9,"DSPLY_FLAG":"N","OBJECTID":294}},{"type":"Feature","id":295,"geometry":{"type":"Point","coordinates":[-98.6003379271946,31.9168154984804]},"properties":{"GID":219,"ARPRT_NM":"Comanche County-City Airport","CSTMS_FLAG":"N","FAA_CD":"MKN","CNTY_NBR":47,"DIST_NBR":23,"DSPLY_FLAG":"N","OBJECTID":295}},{"type":"Feature","id":296,"geometry":{"type":"Point","coordinates":[-96.3980473817296,32.027495610646]},"properties":{"GID":220,"ARPRT_NM":"CD Campbell Airfield-Corsicana Municipal Airport","CSTMS_FLAG":"N","FAA_CD":"CRS","CNTY_NBR":175,"DIST_NBR":18,"DSPLY_FLAG":"N","OBJECTID":296}},{"type":"Feature","id":297,"geometry":{"type":"Point","coordinates":[-95.8283572407841,32.1638556665331]},"properties":{"GID":221,"ARPRT_NM":"Athens Municipal Airport","CSTMS_FLAG":"N","FAA_CD":"F44","CNTY_NBR":108,"DIST_NBR":10,"DSPLY_FLAG":"N","OBJECTID":297}},{"type":"Feature","id":298,"geometry":{"type":"Point","coordinates":[-94.2988168459561,32.1760857238547]},"properties":{"GID":222,"ARPRT_NM":"Panola County-Sharpe Airport","CSTMS_FLAG":"N","FAA_CD":"4F2","CNTY_NBR":183,"DIST_NBR":19,"DSPLY_FLAG":"N","OBJECTID":298}},{"type":"Feature","id":299,"geometry":{"type":"Point","coordinates":[-94.8517269856036,32.1417256978424]},"properties":{"GID":223,"ARPRT_NM":"Rusk County Airport","CSTMS_FLAG":"N","FAA_CD":"F12","CNTY_NBR":201,"DIST_NBR":10,"DSPLY_FLAG":"N","OBJECTID":299}},{"type":"Feature","id":300,"geometry":{"type":"Point","coordinates":[-98.1776778407648,32.2153255713278]},"properties":{"GID":224,"ARPRT_NM":"Clark Field Municipal Airport","CSTMS_FLAG":"N","FAA_CD":"SEP","CNTY_NBR":73,"DIST_NBR":2,"DSPLY_FLAG":"N","OBJECTID":300}},{"type":"Feature","id":301,"geometry":{"type":"Point","coordinates":[-99.6819082186325,32.4113255439499]},"properties":{"GID":225,"ARPRT_NM":"Abilene Regional Airport","CSTMS_FLAG":"N","FAA_CD":"ABI","CNTY_NBR":221,"DIST_NBR":8,"DSPLY_FLAG":"N","OBJECTID":301}},{"type":"Feature","id":302,"geometry":{"type":"Point","coordinates":[-102.52953889266,32.3311154055035]},"properties":{"GID":226,"ARPRT_NM":"Andrews County Airport","CSTMS_FLAG":"N","FAA_CD":"E11","CNTY_NBR":2,"DIST_NBR":6,"DSPLY_FLAG":"N","OBJECTID":302}},{"type":"Feature","id":303,"geometry":{"type":"Point","coordinates":[-101.521648644506,32.2126154251214]},"properties":{"GID":227,"ARPRT_NM":"Big Spring McMahone-Wrinkle Airport","CSTMS_FLAG":"N","FAA_CD":"BPG","CNTY_NBR":115,"DIST_NBR":8,"DSPLY_FLAG":"N","OBJECTID":303}},{"type":"Feature","id":304,"geometry":{"type":"Point","coordinates":[-100.466558410414,32.4673755207954]},"properties":{"GID":228,"ARPRT_NM":"Avenger Field","CSTMS_FLAG":"N","FAA_CD":"SWW","CNTY_NBR":177,"DIST_NBR":8,"DSPLY_FLAG":"N","OBJECTID":304}},{"type":"Feature","id":305,"geometry":{"type":"Point","coordinates":[-96.6638974659252,32.3296956520332]},"properties":{"GID":229,"ARPRT_NM":"Ennis Municipal Airport","CSTMS_FLAG":"N","FAA_CD":"F41","CNTY_NBR":71,"DIST_NBR":18,"DSPLY_FLAG":"N","OBJECTID":305}},{"type":"Feature","id":306,"geometry":{"type":"Point","coordinates":[-96.9124175346288,32.456105670822]},"properties":{"GID":230,"ARPRT_NM":"Mid-Way Regional Airport","CSTMS_FLAG":"N","FAA_CD":"4T6","CNTY_NBR":71,"DIST_NBR":18,"DSPLY_FLAG":"N","OBJECTID":306}},{"type":"Feature","id":307,"geometry":{"type":"Point","coordinates":[-97.4337576637153,32.3537656237948]},"properties":{"GID":231,"ARPRT_NM":"Cleburne Municipal Airport","CSTMS_FLAG":"N","FAA_CD":"F18","CNTY_NBR":127,"DIST_NBR":2,"DSPLY_FLAG":"N","OBJECTID":307}},{"type":"Feature","id":308,"geometry":{"type":"Point","coordinates":[-97.816957760985,32.4444256325341]},"properties":{"GID":232,"ARPRT_NM":"Granbury Municipal Airport","CSTMS_FLAG":"N","FAA_CD":"F55","CNTY_NBR":112,"DIST_NBR":2,"DSPLY_FLAG":"N","OBJECTID":308}},{"type":"Feature","id":309,"geometry":{"type":"Point","coordinates":[-94.971757039683,32.5288457619522]},"properties":{"GID":233,"ARPRT_NM":"Gladewater Municipal Airport","CSTMS_FLAG":"N","FAA_CD":"07F","CNTY_NBR":93,"DIST_NBR":10,"DSPLY_FLAG":"N","OBJECTID":309}},{"type":"Feature","id":310,"geometry":{"type":"Point","coordinates":[-94.7117169703859,32.3848657525407]},"properties":{"GID":234,"ARPRT_NM":"Gregg County Airport","CSTMS_FLAG":"N","FAA_CD":"GGG","CNTY_NBR":93,"DIST_NBR":10,"DSPLY_FLAG":"N","OBJECTID":310}},{"type":"Feature","id":311,"geometry":{"type":"Point","coordinates":[-95.4023971482424,32.3541457151467]},"properties":{"GID":235,"ARPRT_NM":"Tyler Pounds Regional Airport","CSTMS_FLAG":"N","FAA_CD":"TYR","CNTY_NBR":212,"DIST_NBR":10,"DSPLY_FLAG":"N","OBJECTID":311}},{"type":"Feature","id":312,"geometry":{"type":"Point","coordinates":[-94.3077868690211,32.5205057962078]},"properties":{"GID":236,"ARPRT_NM":"Harrison County Airport","CSTMS_FLAG":"N","FAA_CD":"ASL","CNTY_NBR":103,"DIST_NBR":19,"DSPLY_FLAG":"N","OBJECTID":312}},{"type":"Feature","id":313,"geometry":{"type":"Point","coordinates":[-96.2674273897014,32.7100557463605]},"properties":{"GID":237,"ARPRT_NM":"Terrell Municipal Airport","CSTMS_FLAG":"N","FAA_CD":"TRL","CNTY_NBR":130,"DIST_NBR":18,"DSPLY_FLAG":"N","OBJECTID":313}},{"type":"Feature","id":314,"geometry":{"type":"Point","coordinates":[-102.647423004476,32.6754462507448]},"properties":{"GID":238,"ARPRT_NM":"Gaines County Airport","CSTMS_FLAG":"N","FAA_CD":"31F","CNTY_NBR":84,"DIST_NBR":5,"DSPLY_FLAG":"N","OBJECTID":314}},{"type":"Feature","id":315,"geometry":{"type":"Point","coordinates":[-101.917057013573,32.7567987499396]},"properties":{"GID":239,"ARPRT_NM":"Lamesa Municipal Airport","CSTMS_FLAG":"N","FAA_CD":"2F5","CNTY_NBR":58,"DIST_NBR":5,"DSPLY_FLAG":"N","OBJECTID":315}},{"type":"Feature","id":316,"geometry":{"type":"Point","coordinates":[-96.352207412793,32.8140257609875]},"properties":{"GID":240,"ARPRT_NM":"Airpark East","CSTMS_FLAG":"N","FAA_CD":"1F7","CNTY_NBR":199,"DIST_NBR":18,"DSPLY_FLAG":"N","OBJECTID":316}},{"type":"Feature","id":317,"geometry":{"type":"Point","coordinates":[-96.4354974362555,32.9305957803569]},"properties":{"GID":241,"ARPRT_NM":"Rockwall Municipal Airport","CSTMS_FLAG":"N","FAA_CD":"F46","CNTY_NBR":199,"DIST_NBR":18,"DSPLY_FLAG":"N","OBJECTID":317}},{"type":"Feature","id":318,"geometry":{"type":"Point","coordinates":[-96.8364575491875,32.9685657760147]},"properties":{"GID":242,"ARPRT_NM":"Addison Airport","CSTMS_FLAG":"Y","FAA_CD":"ADS","CNTY_NBR":57,"DIST_NBR":18,"DSPLY_FLAG":"N","OBJECTID":318}},{"type":"Feature","id":319,"geometry":{"type":"Point","coordinates":[-96.8517775447053,32.8471157423445]},"properties":{"GID":243,"ARPRT_NM":"Dallas Love Field","CSTMS_FLAG":"Y","FAA_CD":"DAL","CNTY_NBR":57,"DIST_NBR":18,"DSPLY_FLAG":"N","OBJECTID":319}},{"type":"Feature","id":320,"geometry":{"type":"Point","coordinates":[-96.7190574963587,32.5791957037992]},"properties":{"GID":244,"ARPRT_NM":"Lancaster Airport","CSTMS_FLAG":"N","FAA_CD":"LNC","CNTY_NBR":57,"DIST_NBR":18,"DSPLY_FLAG":"N","OBJECTID":320}},{"type":"Feature","id":321,"geometry":{"type":"Point","coordinates":[-97.037207597007,32.8959557489179]},"properties":{"GID":245,"ARPRT_NM":"Dallas/Fort Worth International Airport","CSTMS_FLAG":"Y","FAA_CD":"DFW","CNTY_NBR":220,"DIST_NBR":2,"DSPLY_FLAG":"N","OBJECTID":321}},{"type":"Feature","id":322,"geometry":{"type":"Point","coordinates":[-97.3624476698999,32.8197857223142]},"properties":{"GID":246,"ARPRT_NM":"Fort Worth Meacham International Airport","CSTMS_FLAG":"Y","FAA_CD":"FTW","CNTY_NBR":220,"DIST_NBR":2,"DSPLY_FLAG":"N","OBJECTID":322}},{"type":"Feature","id":323,"geometry":{"type":"Point","coordinates":[-97.3536376547533,32.6284756818042]},"properties":{"GID":247,"ARPRT_NM":"Sycamore Airstrip","CSTMS_FLAG":"N","FAA_CD":"9F9","CNTY_NBR":220,"DIST_NBR":2,"DSPLY_FLAG":"N","OBJECTID":323}},{"type":"Feature","id":324,"geometry":{"type":"Point","coordinates":[-97.323007648492,32.5833356735097]},"properties":{"GID":248,"ARPRT_NM":"Luck Airfield","CSTMS_FLAG":"N","FAA_CD":"F71","CNTY_NBR":220,"DIST_NBR":2,"DSPLY_FLAG":"Y","OBJECTID":324}},{"type":"Feature","id":325,"geometry":{"type":"Point","coordinates":[-97.3080876422275,32.5652356780189]},"properties":{"GID":249,"ARPRT_NM":"Fort Worth Spinks Airport","CSTMS_FLAG":"N","FAA_CD":"FWS","CNTY_NBR":220,"DIST_NBR":2,"DSPLY_FLAG":"N","OBJECTID":325}},{"type":"Feature","id":326,"geometry":{"type":"Point","coordinates":[-97.3188176715466,32.9876457536008]},"properties":{"GID":250,"ARPRT_NM":"Fort Worth Alliance Airport","CSTMS_FLAG":"Y","FAA_CD":"AFW","CNTY_NBR":220,"DIST_NBR":2,"DSPLY_FLAG":"N","OBJECTID":326}},{"type":"Feature","id":327,"geometry":{"type":"Point","coordinates":[-97.0465375830912,32.6985857112146]},"properties":{"GID":251,"ARPRT_NM":"Grand Prairie Municipal Airport","CSTMS_FLAG":"N","FAA_CD":"GPM","CNTY_NBR":220,"DIST_NBR":2,"DSPLY_FLAG":"N","OBJECTID":327}},{"type":"Feature","id":328,"geometry":{"type":"Point","coordinates":[-97.0939175896149,32.6624257005393]},"properties":{"GID":252,"ARPRT_NM":"Arlington Municipal Airport","CSTMS_FLAG":"N","FAA_CD":"GKY","CNTY_NBR":220,"DIST_NBR":2,"DSPLY_FLAG":"N","OBJECTID":328}},{"type":"Feature","id":329,"geometry":{"type":"Point","coordinates":[-95.5108171833503,32.6766957729146]},"properties":{"GID":253,"ARPRT_NM":"Mineola Wisener Airport","CSTMS_FLAG":"N","FAA_CD":"3F9","CNTY_NBR":250,"DIST_NBR":10,"DSPLY_FLAG":"N","OBJECTID":329}},{"type":"Feature","id":330,"geometry":{"type":"Point","coordinates":[-95.496517188905,32.7413857844516]},"properties":{"GID":254,"ARPRT_NM":"Wood County Airport","CSTMS_FLAG":"N","FAA_CD":"3T1","CNTY_NBR":250,"DIST_NBR":10,"DSPLY_FLAG":"N","OBJECTID":330}},{"type":"Feature","id":331,"geometry":{"type":"Point","coordinates":[-97.5907777136224,32.5817856610867]},"properties":{"GID":255,"ARPRT_NM":"Bourland Field","CSTMS_FLAG":"N","FAA_CD":"50F","CNTY_NBR":184,"DIST_NBR":2,"DSPLY_FLAG":"N","OBJECTID":331}},{"type":"Feature","id":332,"geometry":{"type":"Point","coordinates":[-97.6824477493662,32.7463056908927]},"properties":{"GID":256,"ARPRT_NM":"Parker County Airport","CSTMS_FLAG":"N","FAA_CD":"WEA","CNTY_NBR":184,"DIST_NBR":2,"DSPLY_FLAG":"N","OBJECTID":332}},{"type":"Feature","id":333,"geometry":{"type":"Point","coordinates":[-94.1953368774626,33.1018159075238]},"properties":{"GID":257,"ARPRT_NM":"Hall-Miller Municipal Airport","CSTMS_FLAG":"N","FAA_CD":"ATA","CNTY_NBR":34,"DIST_NBR":19,"DSPLY_FLAG":"N","OBJECTID":333}},{"type":"Feature","id":334,"geometry":{"type":"Point","coordinates":[-95.6211472487547,33.1598358574542]},"properties":{"GID":258,"ARPRT_NM":"Sulphur Springs Municipal Airport","CSTMS_FLAG":"N","FAA_CD":"SLR","CNTY_NBR":113,"DIST_NBR":1,"DSPLY_FLAG":"N","OBJECTID":334}},{"type":"Feature","id":335,"geometry":{"type":"Point","coordinates":[-102.192628864301,33.1736855705155]},"properties":{"GID":259,"ARPRT_NM":"Terry County Airport","CSTMS_FLAG":"N","FAA_CD":"Q26","CNTY_NBR":223,"DIST_NBR":5,"DSPLY_FLAG":"N","OBJECTID":335}},{"type":"Feature","id":336,"geometry":{"type":"Point","coordinates":[-95.2374471456045,33.2154458905091]},"properties":{"GID":260,"ARPRT_NM":"Franklin County Airport","CSTMS_FLAG":"N","FAA_CD":"F53","CNTY_NBR":81,"DIST_NBR":1,"DSPLY_FLAG":"N","OBJECTID":336}},{"type":"Feature","id":337,"geometry":{"type":"Point","coordinates":[-94.9756470754432,33.1293658770305]},"properties":{"GID":261,"ARPRT_NM":"Mount Pleasant Municipal Airport","CSTMS_FLAG":"N","FAA_CD":"MSA","CNTY_NBR":225,"DIST_NBR":19,"DSPLY_FLAG":"N","OBJECTID":337}},{"type":"Feature","id":338,"geometry":{"type":"Point","coordinates":[-96.8369575514746,33.0234557853235]},"properties":{"GID":262,"ARPRT_NM":"Air Park Dallas","CSTMS_FLAG":"N","FAA_CD":"F69","CNTY_NBR":43,"DIST_NBR":18,"DSPLY_FLAG":"N","OBJECTID":338}},{"type":"Feature","id":339,"geometry":{"type":"Point","coordinates":[-96.5905375004618,33.1779558172879]},"properties":{"GID":263,"ARPRT_NM":"McKinney Municipal Airport","CSTMS_FLAG":"N","FAA_CD":"TKI","CNTY_NBR":43,"DIST_NBR":18,"DSPLY_FLAG":"N","OBJECTID":339}},{"type":"Feature","id":340,"geometry":{"type":"Point","coordinates":[-96.0653373582102,33.0678458287281]},"properties":{"GID":264,"ARPRT_NM":"Majors Airport","CSTMS_FLAG":"N","FAA_CD":"GVT","CNTY_NBR":117,"DIST_NBR":1,"DSPLY_FLAG":"N","OBJECTID":340}},{"type":"Feature","id":341,"geometry":{"type":"Point","coordinates":[-97.1979876497405,33.2007257963632]},"properties":{"GID":265,"ARPRT_NM":"Denton Municipal Airport","CSTMS_FLAG":"N","FAA_CD":"DTO","CNTY_NBR":61,"DIST_NBR":18,"DSPLY_FLAG":"N","OBJECTID":341}},{"type":"Feature","id":342,"geometry":{"type":"Point","coordinates":[-97.0141776066457,33.1320657933023]},"properties":{"GID":266,"ARPRT_NM":"Lakeview Airport","CSTMS_FLAG":"N","FAA_CD":"30F","CNTY_NBR":61,"DIST_NBR":18,"DSPLY_FLAG":"N","OBJECTID":342}},{"type":"Feature","id":343,"geometry":{"type":"Point","coordinates":[-102.37273893898,33.5498156192254]},"properties":{"GID":267,"ARPRT_NM":"Levelland Municipal Airport","CSTMS_FLAG":"N","FAA_CD":"Q24","CNTY_NBR":111,"DIST_NBR":5,"DSPLY_FLAG":"N","OBJECTID":343}},{"type":"Feature","id":344,"geometry":{"type":"Point","coordinates":[-102.733829036622,33.7292656289331]},"properties":{"GID":268,"ARPRT_NM":"Cochran County Airport","CSTMS_FLAG":"N","FAA_CD":"F85","CNTY_NBR":40,"DIST_NBR":5,"DSPLY_FLAG":"Y","OBJECTID":344}},{"type":"Feature","id":345,"geometry":{"type":"Point","coordinates":[-101.822788813771,33.6636456648492]},"properties":{"GID":269,"ARPRT_NM":"Lubbock International Airport","CSTMS_FLAG":"Y","FAA_CD":"LBB","CNTY_NBR":152,"DIST_NBR":5,"DSPLY_FLAG":"N","OBJECTID":345}},{"type":"Feature","id":346,"geometry":{"type":"Point","coordinates":[-101.660728765064,33.4848156459054]},"properties":{"GID":270,"ARPRT_NM":"Slaton Municipal Airport","CSTMS_FLAG":"N","FAA_CD":"F49","CNTY_NBR":152,"DIST_NBR":5,"DSPLY_FLAG":"N","OBJECTID":346}},{"type":"Feature","id":347,"geometry":{"type":"Point","coordinates":[-101.240848676978,33.6238456913147]},"properties":{"GID":271,"ARPRT_NM":"Crosbyton Municipal Airport","CSTMS_FLAG":"N","FAA_CD":"8F3","CNTY_NBR":54,"DIST_NBR":5,"DSPLY_FLAG":"N","OBJECTID":347}},{"type":"Feature","id":348,"geometry":{"type":"Point","coordinates":[-98.6186780371381,33.5823358042667]},"properties":{"GID":272,"ARPRT_NM":"Archer City Municipal Airport","CSTMS_FLAG":"N","FAA_CD":"T39","CNTY_NBR":5,"DIST_NBR":3,"DSPLY_FLAG":"N","OBJECTID":348}},{"type":"Feature","id":349,"geometry":{"type":"Point","coordinates":[-99.586208263269,33.4848257461903]},"properties":{"GID":273,"ARPRT_NM":"Munday Municipal Airport","CSTMS_FLAG":"N","FAA_CD":"37F","CNTY_NBR":138,"DIST_NBR":25,"DSPLY_FLAG":"N","OBJECTID":349}},{"type":"Feature","id":350,"geometry":{"type":"Point","coordinates":[-96.6736775537808,33.714115914119]},"properties":{"GID":274,"ARPRT_NM":"Grayson County Airport","CSTMS_FLAG":"N","FAA_CD":"F39","CNTY_NBR":92,"DIST_NBR":1,"DSPLY_FLAG":"N","OBJECTID":350}},{"type":"Feature","id":351,"geometry":{"type":"Point","coordinates":[-97.7755678231838,33.6016758461214]},"properties":{"GID":275,"ARPRT_NM":"Bowie Municipal Airport","CSTMS_FLAG":"N","FAA_CD":"0F2","CNTY_NBR":169,"DIST_NBR":3,"DSPLY_FLAG":"N","OBJECTID":351}},{"type":"Feature","id":352,"geometry":{"type":"Point","coordinates":[-98.6166980541321,33.9477258733702]},"properties":{"GID":276,"ARPRT_NM":"Wichita Valley Airport","CSTMS_FLAG":"N","FAA_CD":"F14","CNTY_NBR":243,"DIST_NBR":3,"DSPLY_FLAG":"N","OBJECTID":352}},{"type":"Feature","id":353,"geometry":{"type":"Point","coordinates":[-98.4918980312341,33.9888058834469]},"properties":{"GID":277,"ARPRT_NM":"Wichita Falls Municipal/Sheppard Air Force Base","CSTMS_FLAG":"N","FAA_CD":"SPS","CNTY_NBR":243,"DIST_NBR":3,"DSPLY_FLAG":"N","OBJECTID":353}},{"type":"Feature","id":354,"geometry":{"type":"Point","coordinates":[-101.717348832718,34.1681557579277]},"properties":{"GID":278,"ARPRT_NM":"Hale County Airport","CSTMS_FLAG":"N","FAA_CD":"PVW","CNTY_NBR":96,"DIST_NBR":5,"DSPLY_FLAG":"N","OBJECTID":354}},{"type":"Feature","id":355,"geometry":{"type":"Point","coordinates":[-102.38668897135,33.9239556786248]},"properties":{"GID":279,"ARPRT_NM":"Littlefield Municipal Airport","CSTMS_FLAG":"N","FAA_CD":"Q00","CNTY_NBR":140,"DIST_NBR":5,"DSPLY_FLAG":"N","OBJECTID":355}},{"type":"Feature","id":356,"geometry":{"type":"Point","coordinates":[-99.7592783605423,34.2770858747369]},"properties":{"GID":280,"ARPRT_NM":"Quanah Municipal Airport","CSTMS_FLAG":"N","FAA_CD":"F01","CNTY_NBR":100,"DIST_NBR":25,"DSPLY_FLAG":"N","OBJECTID":356}},{"type":"Feature","id":357,"geometry":{"type":"Point","coordinates":[-100.288068498554,34.4337258784607]},"properties":{"GID":281,"ARPRT_NM":"Childress Municipal Airport","CSTMS_FLAG":"N","FAA_CD":"CDS","CNTY_NBR":38,"DIST_NBR":25,"DSPLY_FLAG":"N","OBJECTID":357}},{"type":"Feature","id":358,"geometry":{"type":"Point","coordinates":[-102.31955521924,34.5702196629237]},"properties":{"GID":282,"ARPRT_NM":"Dimmit Municipal Airport","CSTMS_FLAG":"N","FAA_CD":"Q55","CNTY_NBR":35,"DIST_NBR":5,"DSPLY_FLAG":"N","OBJECTID":358}},{"type":"Feature","id":359,"geometry":{"type":"Point","coordinates":[-101.781468866408,34.5668258173013]},"properties":{"GID":283,"ARPRT_NM":"City of Tulia-Swisher County Municipal","CSTMS_FLAG":"N","FAA_CD":"Q06","CNTY_NBR":219,"DIST_NBR":5,"DSPLY_FLAG":"N","OBJECTID":359}},{"type":"Feature","id":360,"geometry":{"type":"Point","coordinates":[-100.195958508408,34.845615947982]},"properties":{"GID":284,"ARPRT_NM":"Marian Airpark ","CSTMS_FLAG":"N","FAA_CD":"F06","CNTY_NBR":44,"DIST_NBR":25,"DSPLY_FLAG":"N","OBJECTID":360}},{"type":"Feature","id":361,"geometry":{"type":"Point","coordinates":[-100.86978867746,34.9104759245236]},"properties":{"GID":285,"ARPRT_NM":"Clarendon Municipal Airport","CSTMS_FLAG":"N","FAA_CD":"E34","CNTY_NBR":65,"DIST_NBR":25,"DSPLY_FLAG":"Y","OBJECTID":361}},{"type":"Feature","id":362,"geometry":{"type":"Point","coordinates":[-102.327209019072,34.8576258485331]},"properties":{"GID":286,"ARPRT_NM":"Hereford Municipal Airport","CSTMS_FLAG":"N","FAA_CD":"HRX","CNTY_NBR":59,"DIST_NBR":4,"DSPLY_FLAG":"N","OBJECTID":362}},{"type":"Feature","id":363,"geometry":{"type":"Point","coordinates":[-96.9485624268784,29.9079698524586]},"properties":{"GID":365,"ARPRT_NM":"Fayette County Regional Air Center","CSTMS_FLAG":"N","FAA_CD":"3T5","CNTY_NBR":76,"DIST_NBR":13,"DSPLY_FLAG":null,"OBJECTID":363}},{"type":"Feature","id":364,"geometry":{"type":"Point","coordinates":[-97.8276826860767,31.0727437540593]},"properties":{"GID":366,"ARPRT_NM":"Killeen - Fort Hood Regional Airport","CSTMS_FLAG":"N","FAA_CD":"GRK","CNTY_NBR":14,"DIST_NBR":9,"DSPLY_FLAG":null,"OBJECTID":364}},{"type":"Feature","id":365,"geometry":{"type":"Point","coordinates":[-95.8609674528335,28.9729748677273]},"properties":{"GID":367,"ARPRT_NM":"Bay City Regional Airport","CSTMS_FLAG":"N","FAA_CD":"BYY","CNTY_NBR":158,"DIST_NBR":13,"DSPLY_FLAG":null,"OBJECTID":365}},{"type":"Feature","id":366,"geometry":{"type":"Point","coordinates":[-96.9728811205834,30.8788554498372]},"properties":{"GID":368,"ARPRT_NM":"Cameron Municipal Airpark","CSTMS_FLAG":"N","FAA_CD":"T35","CNTY_NBR":166,"DIST_NBR":17,"DSPLY_FLAG":null,"OBJECTID":366}}]}